npi,provider_name,specialty,address,city,state,zip,phone
1234567890,Dr. Anil Sharma,Cardiology,12 MG Road,Bengaluru,KA,560001,9876543210
1234567891,Dr. Priya Mehta,Dermatology,45 Linking Road,Mumbai,MH,400050,9823456789
1234567892,Dr. Rahul Verma,Orthopedics,22 Park Street,Kolkata,WB,700016,9830012345
1234567893,Dr. Neha Iyer,Pediatrics,18 T Nagar,Chennai,TN,600017,9840011122
1234567894,Dr. Arjun Singh,Neurology,5 Civil Lines,Jaipur,RJ,302006,9799988877
1234567895,Dr. Kavita Rao,Gynecology,90 Banjara Hills,Hyderabad,TS,500034,9887766554
1234567896,Dr. Suresh Patel,General Medicine,101 Ashram Road,Ahmedabad,GJ,380009,9898123456
1234567897,Dr. Pooja Nair,ENT,14 Marine Drive,Kochi,KL,682011,9966123456
1234567898,Dr. Amit Kulkarni,Oncology,33 FC Road,Pune,MH,411004,9765432109
1234567899,Dr. Ritu Malhotra,Psychiatry,77 Sector 17,Chandigarh,CH,160017,9815512345
1234567900,Dr. Neha Iyer,Psychiatry,147 Main Road,Pune,MH,411055,9340915796
1234567901,Dr. Ayaan Chatterjee,General Medicine,92 Main Road,Mumbai,MH,400069,9509235430
1234567902,Dr. Ananya Patel,Neurology,189 Main Road,Mumbai,MH,400013,9927748754
1234567903,Dr. Aarav Malhotra,Cardiology,144 Main Road,Mumbai,MH,400070,9653458526
1234567904,Dr. Arjun Iyer,Psychiatry,99 Main Road,Pune,MH,411096,9612513480
1234567905,Dr. Sakshi Malhotra,Oncology,168 Main Road,Bengaluru,KA,560078,9810016181
1234567906,Dr. Aarav Mehta,General Medicine,2 Main Road,Ahmedabad,GJ,380072,9297855130
1234567907,Dr. Aarav Mehta,ENT,123 Main Road,Delhi,DL,110046,9308317802
1234567908,Dr. Ishaan Nair,ENT,70 Main Road,Bengaluru,KA,560062,9458304138
1234567909,Dr. Ayaan Malhotra,Oncology,4 Main Road,Ahmedabad,GJ,380050,9690094284
1234567910,Dr. Kavya Patel,Oncology,17 Main Road,Pune,MH,411071,9977119035
1234567911,Dr. Riya Kulkarni,Oncology,23 Main Road,Delhi,DL,110091,9192510670
1234567912,Dr. Aditya Singh,Pediatrics,115 Main Road,Pune,MH,411073,9725918785
1234567913,Dr. Ayaan Gupta,Oncology,4 Main Road,Ahmedabad,GJ,380018,9857798867
1234567914,Dr. Pooja Patel,Oncology,130 Main Road,Hyderabad,TS,500018,9872800711
1234567915,Dr. Arjun Gupta,Orthopedics,15 Main Road,Pune,MH,411016,9190335531
1234567916,Dr. Riya Rao,Pediatrics,103 Main Road,Ahmedabad,GJ,380097,9949630537
1234567917,Dr. Reyansh Malhotra,ENT,87 Main Road,Delhi,DL,110068,9905076475
1234567918,Dr. Vivaan Kulkarni,General Medicine,175 Main Road,Kolkata,WB,700034,9837533007
1234567919,Dr. Priyanka Patel,Cardiology,48 Main Road,Bengaluru,KA,560049,9660565878
1234567920,Dr. Reyansh Sharma,Dermatology,62 Main Road,Hyderabad,TS,500054,9398363349
1234567921,Dr. Aarav Patel,Pediatrics,31 Main Road,Hyderabad,TS,500020,9987076976
1234567922,Dr. Ayaan Patel,Dermatology,95 Main Road,Bengaluru,KA,560097,9148531543
1234567923,Dr. Ishaan Rao,ENT,136 Main Road,Kolkata,WB,700010,9152892333
1234567924,Dr. Ananya Gupta,Psychiatry,170 Main Road,Hyderabad,TS,500028,9597986820
1234567925,Dr. Ayaan Gupta,General Medicine,182 Main Road,Bengaluru,KA,560021,9842887776
1234567926,Dr. Kavya Malhotra,Cardiology,121 Main Road,Delhi,DL,110097,9425133541
1234567927,Dr. Sakshi Singh,Cardiology,75 Main Road,Chennai,TN,600085,9569184196
1234567928,Dr. Kavya Singh,ENT,26 Main Road,Hyderabad,TS,500011,9131711104
1234567929,Dr. Sakshi Sharma,Dermatology,3 Main Road,Delhi,DL,110072,9920847336
1234567930,Dr. Vivaan Sharma,Cardiology,25 Main Road,Ahmedabad,GJ,380021,9302451429
1234567931,Dr. Priyanka Verma,Oncology,79 Main Road,Ahmedabad,GJ,380040,9377899557
1234567932,Dr. Sakshi Nair,General Medicine,196 Main Road,Chennai,TN,600081,9389797694
1234567933,Dr. Kavya Singh,Oncology,117 Main Road,Chennai,TN,600029,9478134444
1234567934,Dr. Aditya Mehta,Oncology,36 Main Road,Bengaluru,KA,560031,9200707824
1234567935,Dr. Sakshi Patel,ENT,115 Main Road,Bengaluru,KA,560011,9473965494
1234567936,Dr. Vihaan Nair,Gynecology,158 Main Road,Kolkata,WB,700024,9867300030
1234567937,Dr. Reyansh Patel,Oncology,80 Main Road,Delhi,DL,110080,9266586175
1234567938,Dr. Ishaan Kulkarni,ENT,67 Main Road,Mumbai,MH,400076,9477740852
1234567939,Dr. Vivaan Iyer,Neurology,149 Main Road,Chennai,TN,600049,9137019617
1234567940,Dr. Reyansh Singh,Cardiology,28 Main Road,Mumbai,MH,400012,9732136076
1234567941,Dr. Vihaan Iyer,Pediatrics,182 Main Road,Chennai,TN,600098,9438996641
1234567942,Dr. Ananya Verma,Orthopedics,148 Main Road,Kolkata,WB,700033,9469711683
1234567943,Dr. Sakshi Verma,Pediatrics,96 Main Road,Pune,MH,411073,9595364542
1234567944,Dr. Riya Verma,Pediatrics,5 Main Road,Chennai,TN,600045,9737257103
1234567945,Dr. Neha Rao,Neurology,1 Main Road,Pune,MH,411031,9146191281
1234567946,Dr. Neha Verma,Orthopedics,13 Main Road,Mumbai,MH,400071,9431415077
1234567947,Dr. Kavya Verma,Dermatology,199 Main Road,Mumbai,MH,400034,9934963098
1234567948,Dr. Reyansh Gupta,Gynecology,34 Main Road,Mumbai,MH,400099,9493840681
1234567949,Dr. Neha Malhotra,ENT,53 Main Road,Delhi,DL,110035,9558629245
1234567950,Dr. Arjun Malhotra,Psychiatry,23 Main Road,Chennai,TN,600045,9730035199
1234567951,Dr. Sakshi Singh,Psychiatry,199 Main Road,Bengaluru,KA,560068,9411366314
1234567952,Dr. Reyansh Mehta,Gynecology,124 Main Road,Kolkata,WB,700024,9127369395
1234567953,Dr. Ananya Patel,ENT,81 Main Road,Hyderabad,TS,500078,9166204067
1234567954,Dr. Ayaan Rao,Psychiatry,106 Main Road,Mumbai,MH,400046,9969243188
1234567955,Dr. Ayaan Malhotra,General Medicine,196 Main Road,Kolkata,WB,700025,9124340619
1234567956,Dr. Arjun Sharma,Psychiatry,183 Main Road,Mumbai,MH,400025,9657248336
1234567957,Dr. Priyanka Mehta,General Medicine,7 Main Road,Mumbai,MH,400026,9577710070
1234567958,Dr. Vihaan Gupta,Oncology,167 Main Road,Bengaluru,KA,560027,9104166556
1234567959,Dr. Reyansh Malhotra,Pediatrics,43 Main Road,Delhi,DL,110059,9991494357
1234567960,Dr. Priyanka Kulkarni,Psychiatry,173 Main Road,Pune,MH,411095,9260167144
1234567961,Dr. Sakshi Chatterjee,Orthopedics,41 Main Road,Hyderabad,TS,500069,9607587995
1234567962,Dr. Sakshi Nair,Gynecology,175 Main Road,Bengaluru,KA,560097,9454587867
1234567963,Dr. Kavya Gupta,Orthopedics,197 Main Road,Pune,MH,411064,9915601358
1234567964,Dr. Reyansh Iyer,Oncology,111 Main Road,Bengaluru,KA,560086,9873176465
1234567965,Dr. Aarav Patel,Dermatology,154 Main Road,Delhi,DL,110032,9576611266
1234567966,Dr. Pooja Gupta,Dermatology,74 Main Road,Ahmedabad,GJ,380019,9501399914
1234567967,Dr. Aditya Gupta,Gynecology,47 Main Road,Kolkata,WB,700066,9347554576
1234567968,Dr. Arjun Sharma,Dermatology,148 Main Road,Mumbai,MH,400085,9343956910
1234567969,Dr. Priyanka Verma,Oncology,7 Main Road,Mumbai,MH,400018,9618662495
1234567970,Dr. Ayaan Iyer,Neurology,89 Main Road,Chennai,TN,600064,9662775966
1234567971,Dr. Kavya Gupta,Neurology,112 Main Road,Bengaluru,KA,560077,9359379058
1234567972,Dr. Vivaan Rao,Neurology,197 Main Road,Kolkata,WB,700027,9497356702
1234567973,Dr. Aarav Iyer,Cardiology,32 Main Road,Hyderabad,TS,500042,9805972657
1234567974,Dr. Riya Nair,Dermatology,65 Main Road,Chennai,TN,600037,9608519115
1234567975,Dr. Neha Chatterjee,Cardiology,175 Main Road,Hyderabad,TS,500061,9580042120
1234567976,Dr. Ishaan Verma,Oncology,94 Main Road,Chennai,TN,600059,9311240427
1234567977,Dr. Neha Verma,Pediatrics,164 Main Road,Delhi,DL,110028,9733447784
1234567978,Dr. Priyanka Verma,Orthopedics,115 Main Road,Hyderabad,TS,500040,9586063320
1234567979,Dr. Vivaan Malhotra,Pediatrics,165 Main Road,Mumbai,MH,400023,9975005289
1234567980,Dr. Riya Iyer,Psychiatry,85 Main Road,Chennai,TN,600072,9987123743
1234567981,Dr. Reyansh Singh,Dermatology,89 Main Road,Ahmedabad,GJ,380050,9822281261
1234567982,Dr. Kavya Mehta,Neurology,10 Main Road,Ahmedabad,GJ,380048,9733024200
1234567983,Dr. Vivaan Nair,Psychiatry,26 Main Road,Kolkata,WB,700065,9744215793
1234567984,Dr. Neha Gupta,Gynecology,176 Main Road,Delhi,DL,110018,9613827438
1234567985,Dr. Aarav Kulkarni,ENT,83 Main Road,Ahmedabad,GJ,380089,9515192418
1234567986,Dr. Aarav Rao,Psychiatry,38 Main Road,Ahmedabad,GJ,380084,9598712654
1234567987,Dr. Sakshi Singh,Neurology,125 Main Road,Hyderabad,TS,500027,9802894206
1234567988,Dr. Kavya Nair,Dermatology,97 Main Road,Kolkata,WB,700051,9471767430
1234567989,Dr. Ayaan Mehta,Dermatology,11 Main Road,Bengaluru,KA,560050,9773092938
1234567990,Dr. Ananya Malhotra,Cardiology,119 Main Road,Mumbai,MH,400057,9967574182
1234567991,Dr. Arjun Kulkarni,Neurology,14 Main Road,Delhi,DL,110050,9963862280
1234567992,Dr. Priyanka Patel,Gynecology,130 Main Road,Pune,MH,411061,9799488844
1234567993,Dr. Vihaan Mehta,Oncology,58 Main Road,Pune,MH,411044,9698548644
1234567994,Dr. Aditya Mehta,Cardiology,33 Main Road,Delhi,DL,110099,9397517505
1234567995,Dr. Pooja Gupta,Oncology,65 Main Road,Ahmedabad,GJ,380076,9923337861
1234567996,Dr. Vivaan Chatterjee,Cardiology,28 Main Road,Ahmedabad,GJ,380083,9273926680
1234567997,Dr. Ishaan Mehta,Psychiatry,67 Main Road,Ahmedabad,GJ,380062,9335505670
1234567998,Dr. Ananya Patel,Gynecology,54 Main Road,Chennai,TN,600088,9648815272
1234567999,Dr. Aarav Mehta,Dermatology,117 Main Road,Chennai,TN,600051,9283183091
1234568000,Dr. Sakshi Rao,ENT,183 Main Road,Mumbai,MH,400023,9448930135
1234568001,Dr. Aditya Chatterjee,Neurology,135 Main Road,Pune,MH,411069,9457333890
1234568002,Dr. Ananya Patel,Orthopedics,192 Main Road,Kolkata,WB,700018,9963482456
1234568003,Dr. Neha Verma,ENT,98 Main Road,Delhi,DL,110080,9592716033
1234568004,Dr. Pooja Nair,General Medicine,151 Main Road,Pune,MH,411056,9422151372
1234568005,Dr. Reyansh Chatterjee,General Medicine,176 Main Road,Kolkata,WB,700052,9709505755
1234568006,Dr. Pooja Mehta,Oncology,41 Main Road,Pune,MH,411072,9440964857
1234568007,Dr. Sakshi Verma,Orthopedics,197 Main Road,Hyderabad,TS,500088,9414794851
1234568008,Dr. Vivaan Sharma,Oncology,25 Main Road,Hyderabad,TS,500052,9338609021
1234568009,Dr. Pooja Mehta,Dermatology,51 Main Road,Delhi,DL,110053,9705431150
1234568010,Dr. Ananya Verma,Dermatology,106 Main Road,Hyderabad,TS,500045,9758111507
1234568011,Dr. Aarav Sharma,Psychiatry,173 Main Road,Ahmedabad,GJ,380028,9434592719
1234568012,Dr. Pooja Kulkarni,Orthopedics,99 Main Road,Hyderabad,TS,500098,9437150976
1234568013,Dr. Neha Iyer,General Medicine,133 Main Road,Mumbai,MH,400031,9536186032
1234568014,Dr. Vihaan Rao,General Medicine,166 Main Road,Delhi,DL,110082,9782273747
1234568015,Dr. Ananya Kulkarni,Pediatrics,158 Main Road,Bengaluru,KA,560018,9911728161
1234568016,Dr. Kavya Kulkarni,General Medicine,166 Main Road,Ahmedabad,GJ,380032,9792775101
1234568017,Dr. Kavya Singh,Neurology,131 Main Road,Chennai,TN,600088,9399395708
1234568018,Dr. Riya Iyer,Gynecology,102 Main Road,Ahmedabad,GJ,380097,9578108101
1234568019,Dr. Reyansh Kulkarni,Orthopedics,137 Main Road,Kolkata,WB,700066,9445793617
1234568020,Dr. Riya Mehta,Neurology,191 Main Road,Ahmedabad,GJ,380015,9466100616
1234568021,Dr. Neha Sharma,General Medicine,2 Main Road,Kolkata,WB,700055,9320717417
1234568022,Dr. Riya Gupta,Pediatrics,5 Main Road,Pune,MH,411086,9322912385
1234568023,Dr. Neha Patel,Gynecology,98 Main Road,Ahmedabad,GJ,380097,9654221152
1234568024,Dr. Aditya Sharma,Pediatrics,96 Main Road,Hyderabad,TS,500090,9867747549
1234568025,Dr. Kavya Patel,General Medicine,101 Main Road,Kolkata,WB,700020,9312575582
1234568026,Dr. Aditya Nair,Oncology,182 Main Road,Ahmedabad,GJ,380082,9825662131
1234568027,Dr. Arjun Gupta,Gynecology,148 Main Road,Pune,MH,411068,9804826411
1234568028,Dr. Pooja Nair,Dermatology,52 Main Road,Bengaluru,KA,560020,9234483032
1234568029,Dr. Ayaan Singh,Gynecology,162 Main Road,Kolkata,WB,700043,9570955259
1234568030,Dr. Priyanka Iyer,Pediatrics,42 Main Road,Chennai,TN,600053,9535636082
1234568031,Dr. Ananya Gupta,Oncology,82 Main Road,Pune,MH,411053,9701906323
1234568032,Dr. Neha Patel,Oncology,1 Main Road,Hyderabad,TS,500014,9731034295
1234568033,Dr. Kavya Chatterjee,Gynecology,20 Main Road,Bengaluru,KA,560047,9474207368
1234568034,Dr. Ishaan Sharma,Pediatrics,2 Main Road,Hyderabad,TS,500020,9807672163
1234568035,Dr. Ayaan Nair,Orthopedics,98 Main Road,Bengaluru,KA,560051,9296531000
1234568036,Dr. Arjun Kulkarni,Psychiatry,175 Main Road,Chennai,TN,600035,9411600623
1234568037,Dr. Reyansh Chatterjee,Gynecology,32 Main Road,Bengaluru,KA,560049,9967172364
1234568038,Dr. Reyansh Kulkarni,Orthopedics,3 Main Road,Delhi,DL,110053,9577452691
1234568039,Dr. Riya Patel,Neurology,96 Main Road,Delhi,DL,110081,9470782340
1234568040,Dr. Neha Verma,Orthopedics,116 Main Road,Mumbai,MH,400086,9910844033
1234568041,Dr. Aditya Malhotra,General Medicine,44 Main Road,Hyderabad,TS,500013,9386440294
1234568042,Dr. Priyanka Kulkarni,Cardiology,138 Main Road,Mumbai,MH,400045,9834053852
1234568043,Dr. Priyanka Sharma,Dermatology,101 Main Road,Hyderabad,TS,500074,9996580892
1234568044,Dr. Pooja Rao,ENT,164 Main Road,Pune,MH,411069,9371677424
1234568045,Dr. Ayaan Kulkarni,Dermatology,19 Main Road,Chennai,TN,600093,9234637905
1234568046,Dr. Ayaan Patel,Neurology,50 Main Road,Hyderabad,TS,500081,9874120880
1234568047,Dr. Riya Iyer,Dermatology,82 Main Road,Chennai,TN,600039,9295824911
1234568048,Dr. Pooja Rao,ENT,68 Main Road,Pune,MH,411091,9700458217
1234568049,Dr. Ishaan Gupta,Gynecology,17 Main Road,Hyderabad,TS,500075,9842995329
1234568050,Dr. Pooja Iyer,Orthopedics,174 Main Road,Chennai,TN,600051,9916080024
1234568051,Dr. Kavya Sharma,Cardiology,185 Main Road,Kolkata,WB,700061,9319277641
1234568052,Dr. Vivaan Kulkarni,Neurology,104 Main Road,Delhi,DL,110034,9704470586
1234568053,Dr. Neha Nair,Oncology,88 Main Road,Ahmedabad,GJ,380078,9518407898
1234568054,Dr. Ayaan Rao,Psychiatry,104 Main Road,Kolkata,WB,700076,9986596844
1234568055,Dr. Aarav Malhotra,Oncology,137 Main Road,Delhi,DL,110026,9615632780
1234568056,Dr. Vivaan Iyer,General Medicine,144 Main Road,Bengaluru,KA,560073,9503668756
1234568057,Dr. Ayaan Malhotra,Psychiatry,181 Main Road,Chennai,TN,600046,9540375591
1234568058,Dr. Riya Singh,Cardiology,155 Main Road,Chennai,TN,600048,9266664632
1234568059,Dr. Ayaan Nair,Pediatrics,29 Main Road,Delhi,DL,110080,9644308741
1234568060,Dr. Arjun Mehta,Oncology,176 Main Road,Delhi,DL,110092,9255270168
1234568061,Dr. Reyansh Kulkarni,ENT,198 Main Road,Bengaluru,KA,560072,9372556804
1234568062,Dr. Reyansh Verma,Dermatology,174 Main Road,Delhi,DL,110059,9923415642
1234568063,Dr. Riya Nair,Pediatrics,41 Main Road,Bengaluru,KA,560083,9209561765
1234568064,Dr. Aditya Sharma,Cardiology,76 Main Road,Chennai,TN,600097,9338639593
1234568065,Dr. Reyansh Chatterjee,Psychiatry,41 Main Road,Bengaluru,KA,560070,9804662846
1234568066,Dr. Aarav Iyer,General Medicine,190 Main Road,Kolkata,WB,700059,9977757702
1234568067,Dr. Pooja Kulkarni,Pediatrics,158 Main Road,Delhi,DL,110052,9675162150
1234568068,Dr. Ananya Mehta,Psychiatry,137 Main Road,Hyderabad,TS,500028,9123399253
1234568069,Dr. Riya Kulkarni,Pediatrics,112 Main Road,Chennai,TN,600084,9509712192
1234568070,Dr. Ananya Malhotra,Dermatology,106 Main Road,Pune,MH,411020,9742947140
1234568071,Dr. Ishaan Mehta,Oncology,70 Main Road,Chennai,TN,600097,9974504949
1234568072,Dr. Vihaan Patel,Oncology,75 Main Road,Hyderabad,TS,500027,9273817900
1234568073,Dr. Ayaan Nair,Gynecology,188 Main Road,Ahmedabad,GJ,380042,9991806923
1234568074,Dr. Sakshi Verma,Cardiology,147 Main Road,Chennai,TN,600076,9314114688
1234568075,Dr. Aarav Chatterjee,Cardiology,148 Main Road,Chennai,TN,600029,9842616841
1234568076,Dr. Pooja Chatterjee,Oncology,32 Main Road,Kolkata,WB,700019,9114236923
1234568077,Dr. Reyansh Patel,Gynecology,13 Main Road,Ahmedabad,GJ,380068,9263719992
1234568078,Dr. Arjun Chatterjee,Cardiology,93 Main Road,Bengaluru,KA,560016,9918659281
1234568079,Dr. Aarav Patel,Cardiology,152 Main Road,Ahmedabad,GJ,380049,9746691175
1234568080,Dr. Priyanka Malhotra,Pediatrics,105 Main Road,Pune,MH,411038,9115585258
1234568081,Dr. Kavya Malhotra,Gynecology,136 Main Road,Ahmedabad,GJ,380068,9274343736
1234568082,Dr. Sakshi Kulkarni,ENT,173 Main Road,Bengaluru,KA,560032,9108670787
1234568083,Dr. Reyansh Gupta,Neurology,107 Main Road,Kolkata,WB,700068,9278760613
1234568084,Dr. Neha Singh,Orthopedics,43 Main Road,Bengaluru,KA,560035,9436782809
1234568085,Dr. Arjun Kulkarni,Orthopedics,65 Main Road,Chennai,TN,600020,9622080768
1234568086,Dr. Ishaan Verma,General Medicine,138 Main Road,Mumbai,MH,400035,9791710738
1234568087,Dr. Sakshi Kulkarni,General Medicine,60 Main Road,Chennai,TN,600047,9385521795
1234568088,Dr. Kavya Kulkarni,Oncology,7 Main Road,Pune,MH,411029,9166426048
1234568089,Dr. Arjun Iyer,Cardiology,37 Main Road,Ahmedabad,GJ,380097,9419759077
1234568090,Dr. Pooja Gupta,General Medicine,182 Main Road,Hyderabad,TS,500041,9897361408
1234568091,Dr. Aditya Singh,General Medicine,8 Main Road,Kolkata,WB,700072,9838127398
1234568092,Dr. Ishaan Kulkarni,Pediatrics,166 Main Road,Mumbai,MH,400048,9284012065
1234568093,Dr. Sakshi Mehta,Oncology,102 Main Road,Pune,MH,411034,9677774355
1234568094,Dr. Vivaan Kulkarni,Neurology,189 Main Road,Hyderabad,TS,500022,9347076499
1234568095,Dr. Reyansh Rao,Neurology,140 Main Road,Delhi,DL,110026,9161281992
1234568096,Dr. Kavya Patel,ENT,157 Main Road,Delhi,DL,110072,9200244285
1234568097,Dr. Neha Verma,Dermatology,123 Main Road,Chennai,TN,600034,9185316566
1234568098,Dr. Pooja Patel,Orthopedics,21 Main Road,Bengaluru,KA,560057,9506963457
1234568099,Dr. Kavya Malhotra,Psychiatry,179 Main Road,Kolkata,WB,700046,9271435357
1234568100,Dr. Arjun Mehta,Gynecology,58 Main Road,Bengaluru,KA,560020,9775860111
1234568101,Dr. Arjun Singh,Gynecology,63 Main Road,Hyderabad,TS,500020,9914409000
1234568102,Dr. Vivaan Iyer,General Medicine,77 Main Road,Delhi,DL,110047,9694868340
1234568103,Dr. Vivaan Kulkarni,Neurology,193 Main Road,Hyderabad,TS,500037,9156141012
1234568104,Dr. Ananya Nair,General Medicine,115 Main Road,Hyderabad,TS,500051,9945220829
1234568105,Dr. Ishaan Mehta,Pediatrics,27 Main Road,Kolkata,WB,700036,9577055818
1234568106,Dr. Neha Gupta,Gynecology,69 Main Road,Pune,MH,411081,9287137023
1234568107,Dr. Vihaan Gupta,Gynecology,6 Main Road,Hyderabad,TS,500078,9149787009
1234568108,Dr. Reyansh Sharma,General Medicine,195 Main Road,Hyderabad,TS,500063,9954020985
1234568109,Dr. Pooja Iyer,Psychiatry,141 Main Road,Pune,MH,411029,9991286779
1234568110,Dr. Arjun Patel,Psychiatry,63 Main Road,Hyderabad,TS,500056,9158988987
1234568111,Dr. Ishaan Kulkarni,Orthopedics,188 Main Road,Bengaluru,KA,560093,9118651321
1234568112,Dr. Ishaan Verma,Orthopedics,46 Main Road,Bengaluru,KA,560097,9910615104
1234568113,Dr. Kavya Sharma,Gynecology,104 Main Road,Delhi,DL,110035,9304385852
1234568114,Dr. Sakshi Singh,Dermatology,57 Main Road,Ahmedabad,GJ,380057,9442323539
1234568115,Dr. Reyansh Sharma,Pediatrics,185 Main Road,Ahmedabad,GJ,380098,9834851799
1234568116,Dr. Reyansh Verma,General Medicine,158 Main Road,Chennai,TN,600074,9601475611
1234568117,Dr. Vivaan Patel,Pediatrics,192 Main Road,Mumbai,MH,400026,9525494006
1234568118,Dr. Riya Nair,Gynecology,95 Main Road,Mumbai,MH,400014,9220681365
1234568119,Dr. Neha Iyer,Gynecology,57 Main Road,Kolkata,WB,700039,9483138080
1234568120,Dr. Aditya Verma,Cardiology,118 Main Road,Pune,MH,411065,9482551189
1234568121,Dr. Ayaan Rao,General Medicine,108 Main Road,Hyderabad,TS,500088,9230527190
1234568122,Dr. Sakshi Malhotra,Psychiatry,30 Main Road,Bengaluru,KA,560096,9866984212
1234568123,Dr. Neha Sharma,Cardiology,115 Main Road,Delhi,DL,110010,9432193673
1234568124,Dr. Ananya Sharma,General Medicine,83 Main Road,Chennai,TN,600029,9429230904
1234568125,Dr. Vihaan Nair,Gynecology,63 Main Road,Chennai,TN,600050,9249196605
1234568126,Dr. Arjun Rao,ENT,118 Main Road,Delhi,DL,110048,9765363946
1234568127,Dr. Sakshi Sharma,General Medicine,7 Main Road,Kolkata,WB,700047,9219026060
1234568128,Dr. Sakshi Iyer,Oncology,91 Main Road,Pune,MH,411079,9887878705
1234568129,Dr. Ananya Mehta,Dermatology,14 Main Road,Delhi,DL,110061,9155084437
1234568130,Dr. Ananya Sharma,ENT,125 Main Road,Kolkata,WB,700029,9452198319
1234568131,Dr. Aarav Patel,Pediatrics,188 Main Road,Chennai,TN,600017,9483855484
1234568132,Dr. Priyanka Patel,Orthopedics,158 Main Road,Mumbai,MH,400013,9297167451
1234568133,Dr. Ishaan Patel,Neurology,183 Main Road,Delhi,DL,110056,9492033442
1234568134,Dr. Priyanka Gupta,Neurology,124 Main Road,Chennai,TN,600092,9591811926
1234568135,Dr. Pooja Rao,Gynecology,21 Main Road,Chennai,TN,600016,9738486198
1234568136,Dr. Sakshi Kulkarni,Gynecology,148 Main Road,Delhi,DL,110034,9655888973
1234568137,Dr. Kavya Sharma,Orthopedics,38 Main Road,Ahmedabad,GJ,380039,9562742994
1234568138,Dr. Ananya Nair,Dermatology,100 Main Road,Ahmedabad,GJ,380095,9552098984
1234568139,Dr. Ishaan Kulkarni,Oncology,69 Main Road,Hyderabad,TS,500092,9859516426
1234568140,Dr. Ananya Singh,Pediatrics,127 Main Road,Mumbai,MH,400048,9238869412
1234568141,Dr. Arjun Mehta,Oncology,176 Main Road,Hyderabad,TS,500032,9571773920
1234568142,Dr. Vihaan Malhotra,Dermatology,56 Main Road,Hyderabad,TS,500049,9336731364
1234568143,Dr. Aditya Chatterjee,Orthopedics,141 Main Road,Ahmedabad,GJ,380053,9683310921
1234568144,Dr. Ayaan Rao,Orthopedics,54 Main Road,Hyderabad,TS,500077,9928763777
1234568145,Dr. Pooja Chatterjee,Pediatrics,7 Main Road,Bengaluru,KA,560081,9319101624
1234568146,Dr. Kavya Verma,ENT,193 Main Road,Ahmedabad,GJ,380064,9271124299
1234568147,Dr. Ayaan Chatterjee,Gynecology,79 Main Road,Bengaluru,KA,560054,9558797015
1234568148,Dr. Ayaan Singh,Gynecology,194 Main Road,Ahmedabad,GJ,380010,9260386636
1234568149,Dr. Riya Patel,Gynecology,168 Main Road,Kolkata,WB,700038,9653975069
1234568150,Dr. Aarav Mehta,Pediatrics,41 Main Road,Delhi,DL,110023,9239157167
1234568151,Dr. Pooja Malhotra,Dermatology,154 Main Road,Kolkata,WB,700059,9134143743
1234568152,Dr. Reyansh Singh,ENT,188 Main Road,Bengaluru,KA,560091,9922485157
1234568153,Dr. Ishaan Kulkarni,Gynecology,196 Main Road,Hyderabad,TS,500049,9903894545
1234568154,Dr. Ananya Sharma,Neurology,152 Main Road,Ahmedabad,GJ,380039,9920484432
1234568155,Dr. Ayaan Iyer,General Medicine,75 Main Road,Mumbai,MH,400064,9203246828
1234568156,Dr. Vivaan Rao,ENT,28 Main Road,Pune,MH,411012,9687679758
1234568157,Dr. Ananya Singh,Dermatology,193 Main Road,Mumbai,MH,400063,9481452766
1234568158,Dr. Aarav Chatterjee,Neurology,138 Main Road,Chennai,TN,600081,9196098077
1234568159,Dr. Ayaan Verma,Cardiology,39 Main Road,Pune,MH,411087,9509143353
1234568160,Dr. Riya Verma,Neurology,140 Main Road,Pune,MH,411098,9159203855
1234568161,Dr. Kavya Iyer,Orthopedics,76 Main Road,Chennai,TN,600065,9134192997
1234568162,Dr. Sakshi Rao,Neurology,116 Main Road,Hyderabad,TS,500041,9156274391
1234568163,Dr. Riya Mehta,Cardiology,70 Main Road,Chennai,TN,600058,9548453090
1234568164,Dr. Pooja Iyer,General Medicine,92 Main Road,Kolkata,WB,700061,9427146624
1234568165,Dr. Pooja Singh,Gynecology,146 Main Road,Ahmedabad,GJ,380026,9247735078
1234568166,Dr. Arjun Rao,Psychiatry,186 Main Road,Kolkata,WB,700067,9215287924
1234568167,Dr. Vivaan Kulkarni,Orthopedics,192 Main Road,Chennai,TN,600053,9214314366
1234568168,Dr. Priyanka Sharma,Pediatrics,10 Main Road,Ahmedabad,GJ,380082,9530735494
1234568169,Dr. Arjun Verma,ENT,129 Main Road,Mumbai,MH,400038,9115671485
1234568170,Dr. Ananya Kulkarni,General Medicine,111 Main Road,Chennai,TN,600081,9363324917
1234568171,Dr. Pooja Gupta,Psychiatry,49 Main Road,Hyderabad,TS,500065,9380962592
1234568172,Dr. Priyanka Gupta,Oncology,46 Main Road,Delhi,DL,110032,9171888334
1234568173,Dr. Ishaan Mehta,Gynecology,29 Main Road,Bengaluru,KA,560081,9753018570
1234568174,Dr. Neha Chatterjee,Orthopedics,45 Main Road,Mumbai,MH,400010,9657972996
1234568175,Dr. Vivaan Gupta,Dermatology,123 Main Road,Kolkata,WB,700082,9788537554
1234568176,Dr. Reyansh Kulkarni,General Medicine,135 Main Road,Kolkata,WB,700075,9134819785
1234568177,Dr. Kavya Malhotra,Orthopedics,133 Main Road,Kolkata,WB,700017,9366830368
1234568178,Dr. Riya Iyer,Dermatology,31 Main Road,Chennai,TN,600098,9549075432
1234568179,Dr. Vihaan Singh,Oncology,145 Main Road,Chennai,TN,600059,9376220782
1234568180,Dr. Ananya Mehta,Dermatology,66 Main Road,Kolkata,WB,700028,9119445925
1234568181,Dr. Vihaan Singh,Neurology,154 Main Road,Mumbai,MH,400032,9682463306
1234568182,Dr. Neha Verma,Orthopedics,47 Main Road,Bengaluru,KA,560056,9829392874
1234568183,Dr. Priyanka Kulkarni,Psychiatry,150 Main Road,Ahmedabad,GJ,380058,9107157849
1234568184,Dr. Arjun Verma,Psychiatry,131 Main Road,Bengaluru,KA,560062,9949812328
1234568185,Dr. Aditya Kulkarni,Oncology,131 Main Road,Kolkata,WB,700045,9781453920
1234568186,Dr. Vivaan Mehta,Gynecology,178 Main Road,Delhi,DL,110029,9745260068
1234568187,Dr. Aditya Patel,Dermatology,145 Main Road,Kolkata,WB,700047,9188630868
1234568188,Dr. Aditya Patel,Dermatology,49 Main Road,Ahmedabad,GJ,380041,9566415281
1234568189,Dr. Sakshi Sharma,Psychiatry,150 Main Road,Bengaluru,KA,560011,9859312378
1234568190,Dr. Ishaan Chatterjee,Dermatology,126 Main Road,Ahmedabad,GJ,380067,9428379407
1234568191,Dr. Ishaan Kulkarni,Gynecology,4 Main Road,Chennai,TN,600091,9337361113
1234568192,Dr. Neha Nair,Orthopedics,185 Main Road,Chennai,TN,600092,9896952340
1234568193,Dr. Ishaan Patel,Cardiology,67 Main Road,Bengaluru,KA,560025,9608151066
1234568194,Dr. Arjun Chatterjee,Cardiology,145 Main Road,Pune,MH,411031,9250163265
1234568195,Dr. Aditya Sharma,Cardiology,175 Main Road,Hyderabad,TS,500053,9934663085
1234568196,Dr. Aarav Rao,Oncology,81 Main Road,Mumbai,MH,400096,9214489725
1234568197,Dr. Pooja Iyer,Cardiology,76 Main Road,Hyderabad,TS,500038,9117391438
1234568198,Dr. Aarav Singh,Orthopedics,153 Main Road,Ahmedabad,GJ,380081,9980716955
1234568199,Dr. Reyansh Patel,Psychiatry,168 Main Road,Delhi,DL,110095,9113543877
1234568200,Dr. Sakshi Gupta,ENT,54 Main Road,Mumbai,MH,400023,9529463602
1234568201,Dr. Vihaan Singh,Dermatology,95 Main Road,Delhi,DL,110029,9845368548
1234568202,Dr. Neha Kulkarni,Gynecology,68 Main Road,Hyderabad,TS,500032,9934257909
1234568203,Dr. Aarav Chatterjee,General Medicine,166 Main Road,Mumbai,MH,400026,9274275101
1234568204,Dr. Reyansh Patel,ENT,35 Main Road,Mumbai,MH,400014,9707249554
1234568205,Dr. Sakshi Kulkarni,General Medicine,79 Main Road,Kolkata,WB,700052,9168176877
1234568206,Dr. Aditya Chatterjee,Pediatrics,164 Main Road,Kolkata,WB,700067,9934985903
1234568207,Dr. Sakshi Iyer,Orthopedics,98 Main Road,Kolkata,WB,700093,9159867807
1234568208,Dr. Aditya Rao,Gynecology,152 Main Road,Hyderabad,TS,500041,9641767628
1234568209,Dr. Riya Nair,Neurology,42 Main Road,Pune,MH,411026,9372165226
1234568210,Dr. Pooja Iyer,Psychiatry,26 Main Road,Kolkata,WB,700075,9395249477
1234568211,Dr. Neha Rao,Gynecology,13 Main Road,Kolkata,WB,700098,9694982942
1234568212,Dr. Ishaan Nair,Cardiology,184 Main Road,Mumbai,MH,400068,9635238347
1234568213,Dr. Arjun Iyer,Pediatrics,2 Main Road,Bengaluru,KA,560093,9689050048
1234568214,Dr. Priyanka Kulkarni,ENT,108 Main Road,Ahmedabad,GJ,380099,9793652554
1234568215,Dr. Vivaan Iyer,Psychiatry,14 Main Road,Pune,MH,411057,9881503969
1234568216,Dr. Vihaan Singh,Psychiatry,164 Main Road,Pune,MH,411039,9464640891
1234568217,Dr. Pooja Gupta,Psychiatry,90 Main Road,Ahmedabad,GJ,380072,9273704682
1234568218,Dr. Riya Malhotra,ENT,81 Main Road,Hyderabad,TS,500060,9290766814
1234568219,Dr. Ishaan Patel,Oncology,154 Main Road,Chennai,TN,600021,9182397777
1234568220,Dr. Aditya Singh,Cardiology,45 Main Road,Delhi,DL,110064,9414128050
1234568221,Dr. Reyansh Mehta,Pediatrics,47 Main Road,Hyderabad,TS,500093,9501690337
1234568222,Dr. Vivaan Verma,Orthopedics,29 Main Road,Pune,MH,411046,9550513153
1234568223,Dr. Vihaan Gupta,Pediatrics,77 Main Road,Pune,MH,411015,9931869363
1234568224,Dr. Pooja Verma,ENT,126 Main Road,Pune,MH,411086,9653399989
1234568225,Dr. Vihaan Gupta,Oncology,67 Main Road,Delhi,DL,110090,9512744671
1234568226,Dr. Arjun Chatterjee,Oncology,66 Main Road,Delhi,DL,110036,9950626590
1234568227,Dr. Arjun Gupta,ENT,25 Main Road,Delhi,DL,110019,9739694828
1234568228,Dr. Reyansh Chatterjee,Pediatrics,171 Main Road,Bengaluru,KA,560074,9628682332
1234568229,Dr. Arjun Iyer,Gynecology,10 Main Road,Hyderabad,TS,500087,9353886742
1234568230,Dr. Kavya Chatterjee,Dermatology,129 Main Road,Pune,MH,411083,9755430301
1234568231,Dr. Kavya Patel,Orthopedics,141 Main Road,Kolkata,WB,700087,9875704384
1234568232,Dr. Priyanka Nair,Oncology,144 Main Road,Mumbai,MH,400065,9403342826
1234568233,Dr. Aarav Sharma,General Medicine,4 Main Road,Chennai,TN,600099,9570179606
1234568234,Dr. Neha Malhotra,Psychiatry,113 Main Road,Bengaluru,KA,560057,9274759026
1234568235,Dr. Vivaan Chatterjee,Orthopedics,76 Main Road,Kolkata,WB,700025,9312060371
1234568236,Dr. Ishaan Mehta,Gynecology,1 Main Road,Delhi,DL,110083,9124402481
1234568237,Dr. Pooja Singh,Gynecology,198 Main Road,Bengaluru,KA,560092,9431267604
1234568238,Dr. Aarav Sharma,Cardiology,161 Main Road,Delhi,DL,110027,9485988044
1234568239,Dr. Ishaan Mehta,Dermatology,101 Main Road,Bengaluru,KA,560058,9789902849
1234568240,Dr. Neha Patel,Cardiology,148 Main Road,Hyderabad,TS,500030,9416859946
1234568241,Dr. Riya Mehta,Oncology,53 Main Road,Kolkata,WB,700014,9168080672
1234568242,Dr. Arjun Chatterjee,Pediatrics,22 Main Road,Ahmedabad,GJ,380027,9994312393
1234568243,Dr. Aditya Rao,Psychiatry,100 Main Road,Mumbai,MH,400087,9643287292
1234568244,Dr. Priyanka Sharma,General Medicine,154 Main Road,Mumbai,MH,400025,9160917562
1234568245,Dr. Reyansh Patel,Neurology,165 Main Road,Hyderabad,TS,500057,9328482972
1234568246,Dr. Ananya Mehta,General Medicine,33 Main Road,Mumbai,MH,400082,9106260823
1234568247,Dr. Pooja Mehta,Pediatrics,38 Main Road,Mumbai,MH,400017,9993732705
1234568248,Dr. Vivaan Mehta,ENT,91 Main Road,Hyderabad,TS,500018,9301393923
1234568249,Dr. Arjun Chatterjee,Gynecology,87 Main Road,Kolkata,WB,700055,9421121076
1234568250,Dr. Vihaan Iyer,Psychiatry,41 Main Road,Chennai,TN,600068,9960133626
1234568251,Dr. Ishaan Verma,ENT,186 Main Road,Hyderabad,TS,500081,9565841325
1234568252,Dr. Ayaan Nair,Pediatrics,36 Main Road,Pune,MH,411077,9271607113
1234568253,Dr. Kavya Rao,Oncology,14 Main Road,Kolkata,WB,700072,9237955162
1234568254,Dr. Aditya Gupta,ENT,5 Main Road,Chennai,TN,600025,9545200525
1234568255,Dr. Reyansh Verma,Cardiology,189 Main Road,Chennai,TN,600079,9262149624
1234568256,Dr. Ayaan Gupta,ENT,119 Main Road,Ahmedabad,GJ,380021,9570527652
1234568257,Dr. Kavya Mehta,Oncology,12 Main Road,Pune,MH,411096,9986022013
1234568258,Dr. Neha Patel,Psychiatry,62 Main Road,Chennai,TN,600084,9922527573
1234568259,Dr. Riya Sharma,Neurology,72 Main Road,Pune,MH,411038,9600269167
1234568260,Dr. Vivaan Verma,Oncology,120 Main Road,Pune,MH,411016,9278041169
1234568261,Dr. Vivaan Iyer,Neurology,42 Main Road,Delhi,DL,110032,9302306260
1234568262,Dr. Kavya Rao,Cardiology,134 Main Road,Kolkata,WB,700061,9639936647
1234568263,Dr. Aditya Kulkarni,Orthopedics,199 Main Road,Delhi,DL,110069,9853599196
1234568264,Dr. Vihaan Nair,Gynecology,158 Main Road,Chennai,TN,600017,9542334052
1234568265,Dr. Vihaan Verma,Pediatrics,119 Main Road,Bengaluru,KA,560059,9686660208
1234568266,Dr. Arjun Patel,Orthopedics,131 Main Road,Chennai,TN,600061,9464984074
1234568267,Dr. Vihaan Rao,Dermatology,198 Main Road,Delhi,DL,110015,9259870397
1234568268,Dr. Kavya Sharma,Pediatrics,38 Main Road,Pune,MH,411094,9711680064
1234568269,Dr. Neha Kulkarni,Pediatrics,116 Main Road,Bengaluru,KA,560082,9200772745
1234568270,Dr. Vihaan Patel,Oncology,148 Main Road,Chennai,TN,600083,9869490213
1234568271,Dr. Aditya Singh,Gynecology,128 Main Road,Hyderabad,TS,500081,9566138500
1234568272,Dr. Vihaan Iyer,Pediatrics,62 Main Road,Ahmedabad,GJ,380055,9682191770
1234568273,Dr. Sakshi Chatterjee,Neurology,146 Main Road,Chennai,TN,600052,9471937488
1234568274,Dr. Reyansh Verma,Gynecology,153 Main Road,Hyderabad,TS,500031,9379032002
1234568275,Dr. Vivaan Verma,Gynecology,21 Main Road,Pune,MH,411022,9352258815
1234568276,Dr. Aarav Sharma,Cardiology,19 Main Road,Mumbai,MH,400011,9563163549
1234568277,Dr. Vihaan Patel,Psychiatry,25 Main Road,Ahmedabad,GJ,380098,9366022341
1234568278,Dr. Priyanka Kulkarni,Oncology,94 Main Road,Hyderabad,TS,500056,9277172061
1234568279,Dr. Pooja Iyer,Psychiatry,156 Main Road,Chennai,TN,600028,9575867169
1234568280,Dr. Pooja Rao,General Medicine,178 Main Road,Ahmedabad,GJ,380049,9648249828
1234568281,Dr. Ananya Verma,ENT,149 Main Road,Kolkata,WB,700062,9749772460
1234568282,Dr. Sakshi Singh,Pediatrics,120 Main Road,Ahmedabad,GJ,380091,9679573525
1234568283,Dr. Aditya Patel,Cardiology,68 Main Road,Bengaluru,KA,560014,9654914361
1234568284,Dr. Riya Mehta,Oncology,156 Main Road,Kolkata,WB,700047,9170078177
1234568285,Dr. Ananya Iyer,Orthopedics,58 Main Road,Pune,MH,411080,9797984028
1234568286,Dr. Neha Chatterjee,Orthopedics,73 Main Road,Bengaluru,KA,560059,9939446390
1234568287,Dr. Arjun Nair,Oncology,95 Main Road,Ahmedabad,GJ,380061,9324883751
1234568288,Dr. Kavya Sharma,Oncology,89 Main Road,Pune,MH,411093,9867183506
1234568289,Dr. Sakshi Patel,Dermatology,137 Main Road,Hyderabad,TS,500097,9106237589
1234568290,Dr. Reyansh Chatterjee,Pediatrics,45 Main Road,Delhi,DL,110029,9241295150
1234568291,Dr. Neha Singh,Orthopedics,5 Main Road,Mumbai,MH,400063,9741076474
1234568292,Dr. Sakshi Patel,Oncology,192 Main Road,Hyderabad,TS,500078,9185570505
1234568293,Dr. Neha Malhotra,ENT,86 Main Road,Kolkata,WB,700089,9731775927
1234568294,Dr. Riya Malhotra,Cardiology,179 Main Road,Chennai,TN,600037,9880558955
1234568295,Dr. Aditya Rao,Oncology,18 Main Road,Pune,MH,411053,9615733068
1234568296,Dr. Ishaan Sharma,Oncology,25 Main Road,Ahmedabad,GJ,380070,9663938168
1234568297,Dr. Aarav Mehta,Cardiology,50 Main Road,Chennai,TN,600018,9813602821
1234568298,Dr. Aarav Kulkarni,Gynecology,157 Main Road,Pune,MH,411084,9482456218
1234568299,Dr. Arjun Nair,General Medicine,149 Main Road,Delhi,DL,110096,9461281091
1234568300,Dr. Sakshi Iyer,Cardiology,98 Main Road,Mumbai,MH,400089,9681145380
1234568301,Dr. Vihaan Singh,Neurology,55 Main Road,Delhi,DL,110013,9584420226
1234568302,Dr. Pooja Malhotra,Oncology,34 Main Road,Hyderabad,TS,500041,9681186078
1234568303,Dr. Vihaan Nair,Neurology,191 Main Road,Bengaluru,KA,560066,9763577970
1234568304,Dr. Vihaan Patel,Cardiology,89 Main Road,Pune,MH,411069,9135476060
1234568305,Dr. Kavya Gupta,Psychiatry,142 Main Road,Chennai,TN,600037,9660707123
1234568306,Dr. Riya Nair,General Medicine,156 Main Road,Delhi,DL,110054,9961912626
1234568307,Dr. Kavya Verma,Neurology,17 Main Road,Pune,MH,411011,9704504798
1234568308,Dr. Neha Patel,Neurology,109 Main Road,Ahmedabad,GJ,380068,9700073915
1234568309,Dr. Sakshi Singh,ENT,135 Main Road,Hyderabad,TS,500049,9345352103
1234568310,Dr. Pooja Chatterjee,Dermatology,54 Main Road,Ahmedabad,GJ,380031,9346349562
1234568311,Dr. Arjun Malhotra,Psychiatry,175 Main Road,Chennai,TN,600016,9495535832
1234568312,Dr. Ananya Singh,Dermatology,119 Main Road,Mumbai,MH,400033,9325004040
1234568313,Dr. Reyansh Sharma,Oncology,190 Main Road,Ahmedabad,GJ,380076,9703388888
1234568314,Dr. Riya Patel,Gynecology,64 Main Road,Kolkata,WB,700040,9818153776
1234568315,Dr. Pooja Rao,ENT,75 Main Road,Hyderabad,TS,500029,9150729623
1234568316,Dr. Aarav Patel,Cardiology,138 Main Road,Mumbai,MH,400062,9624146206
1234568317,Dr. Ananya Kulkarni,Oncology,12 Main Road,Bengaluru,KA,560046,9536025804
1234568318,Dr. Arjun Singh,Orthopedics,117 Main Road,Mumbai,MH,400060,9628708626
1234568319,Dr. Kavya Iyer,ENT,46 Main Road,Delhi,DL,110077,9512518501
1234568320,Dr. Sakshi Nair,General Medicine,22 Main Road,Chennai,TN,600029,9340549530
1234568321,Dr. Aarav Singh,Gynecology,114 Main Road,Mumbai,MH,400066,9270781537
1234568322,Dr. Arjun Kulkarni,Psychiatry,173 Main Road,Chennai,TN,600035,9793408580
1234568323,Dr. Aarav Kulkarni,Psychiatry,40 Main Road,Chennai,TN,600092,9375962972
1234568324,Dr. Ishaan Singh,ENT,40 Main Road,Hyderabad,TS,500019,9465705004
1234568325,Dr. Sakshi Patel,Gynecology,193 Main Road,Kolkata,WB,700057,9757351526
1234568326,Dr. Vivaan Kulkarni,Orthopedics,29 Main Road,Bengaluru,KA,560065,9190164221
1234568327,Dr. Ayaan Nair,Oncology,13 Main Road,Delhi,DL,110084,9536910094
1234568328,Dr. Pooja Sharma,Dermatology,176 Main Road,Delhi,DL,110023,9795166768
1234568329,Dr. Ayaan Gupta,Cardiology,146 Main Road,Ahmedabad,GJ,380051,9871490128
1234568330,Dr. Kavya Verma,Dermatology,153 Main Road,Mumbai,MH,400032,9588942773
1234568331,Dr. Ishaan Singh,Psychiatry,10 Main Road,Chennai,TN,600037,9366578302
1234568332,Dr. Ananya Iyer,Pediatrics,172 Main Road,Pune,MH,411034,9867166411
1234568333,Dr. Reyansh Patel,Psychiatry,60 Main Road,Hyderabad,TS,500022,9760493490
1234568334,Dr. Neha Sharma,General Medicine,46 Main Road,Bengaluru,KA,560070,9329067597
1234568335,Dr. Arjun Verma,Orthopedics,18 Main Road,Mumbai,MH,400032,9994723708
1234568336,Dr. Aarav Kulkarni,Psychiatry,83 Main Road,Pune,MH,411064,9137755762
1234568337,Dr. Riya Mehta,Gynecology,131 Main Road,Hyderabad,TS,500040,9301183995
1234568338,Dr. Reyansh Kulkarni,Orthopedics,157 Main Road,Chennai,TN,600087,9837780874
1234568339,Dr. Vihaan Nair,Psychiatry,147 Main Road,Bengaluru,KA,560067,9761308691
1234568340,Dr. Aarav Sharma,Dermatology,38 Main Road,Kolkata,WB,700013,9758648689
1234568341,Dr. Priyanka Kulkarni,Gynecology,150 Main Road,Kolkata,WB,700061,9824175625
1234568342,Dr. Riya Rao,Cardiology,2 Main Road,Kolkata,WB,700071,9329480941
1234568343,Dr. Pooja Verma,Pediatrics,84 Main Road,Pune,MH,411091,9556309949
1234568344,Dr. Vivaan Malhotra,Cardiology,122 Main Road,Hyderabad,TS,500073,9380228082
1234568345,Dr. Aditya Nair,General Medicine,152 Main Road,Mumbai,MH,400027,9546084090
1234568346,Dr. Sakshi Sharma,Orthopedics,9 Main Road,Pune,MH,411069,9149502469
1234568347,Dr. Pooja Gupta,Gynecology,168 Main Road,Mumbai,MH,400011,9779466554
1234568348,Dr. Priyanka Rao,ENT,174 Main Road,Ahmedabad,GJ,380088,9750139988
1234568349,Dr. Ayaan Nair,Neurology,28 Main Road,Bengaluru,KA,560014,9708167745
1234568350,Dr. Pooja Sharma,Orthopedics,68 Main Road,Ahmedabad,GJ,380082,9694477600
1234568351,Dr. Priyanka Iyer,Neurology,89 Main Road,Kolkata,WB,700049,9935551865
1234568352,Dr. Riya Chatterjee,Orthopedics,118 Main Road,Bengaluru,KA,560022,9714680219
1234568353,Dr. Vivaan Chatterjee,Orthopedics,45 Main Road,Kolkata,WB,700033,9786435272
1234568354,Dr. Arjun Chatterjee,Oncology,26 Main Road,Ahmedabad,GJ,380066,9461309372
1234568355,Dr. Vivaan Patel,Cardiology,154 Main Road,Hyderabad,TS,500017,9216174345
1234568356,Dr. Arjun Kulkarni,Cardiology,80 Main Road,Hyderabad,TS,500025,9155613988
1234568357,Dr. Ishaan Gupta,Psychiatry,70 Main Road,Kolkata,WB,700030,9945143928
1234568358,Dr. Sakshi Verma,Neurology,49 Main Road,Chennai,TN,600012,9773289602
1234568359,Dr. Aditya Mehta,ENT,7 Main Road,Kolkata,WB,700052,9444224434
1234568360,Dr. Ayaan Verma,General Medicine,158 Main Road,Hyderabad,TS,500018,9539633113
1234568361,Dr. Sakshi Singh,Orthopedics,109 Main Road,Mumbai,MH,400019,9571115957
1234568362,Dr. Neha Gupta,ENT,37 Main Road,Ahmedabad,GJ,380015,9754290879
1234568363,Dr. Arjun Iyer,General Medicine,59 Main Road,Chennai,TN,600042,9438667017
1234568364,Dr. Reyansh Iyer,Oncology,75 Main Road,Bengaluru,KA,560040,9922431496
1234568365,Dr. Arjun Verma,Gynecology,176 Main Road,Chennai,TN,600033,9901888925
1234568366,Dr. Neha Mehta,General Medicine,16 Main Road,Kolkata,WB,700075,9347499730
1234568367,Dr. Priyanka Rao,Neurology,152 Main Road,Bengaluru,KA,560063,9537011318
1234568368,Dr. Ayaan Chatterjee,ENT,186 Main Road,Kolkata,WB,700039,9541015794
1234568369,Dr. Aarav Patel,General Medicine,107 Main Road,Chennai,TN,600040,9337150495
1234568370,Dr. Sakshi Chatterjee,Orthopedics,110 Main Road,Ahmedabad,GJ,380040,9592843773
1234568371,Dr. Neha Patel,Psychiatry,118 Main Road,Bengaluru,KA,560062,9370692946
1234568372,Dr. Priyanka Mehta,Orthopedics,185 Main Road,Mumbai,MH,400088,9892058389
1234568373,Dr. Neha Sharma,Gynecology,5 Main Road,Chennai,TN,600038,9894273114
1234568374,Dr. Reyansh Iyer,Gynecology,193 Main Road,Delhi,DL,110015,9819101129
1234568375,Dr. Ishaan Verma,General Medicine,2 Main Road,Bengaluru,KA,560018,9937821132
1234568376,Dr. Sakshi Verma,Psychiatry,128 Main Road,Bengaluru,KA,560022,9731914957
1234568377,Dr. Aditya Patel,Psychiatry,25 Main Road,Hyderabad,TS,500071,9902393765
1234568378,Dr. Aarav Chatterjee,Cardiology,20 Main Road,Pune,MH,411084,9595899122
1234568379,Dr. Vihaan Malhotra,Cardiology,36 Main Road,Bengaluru,KA,560089,9924758686
1234568380,Dr. Vivaan Iyer,General Medicine,69 Main Road,Bengaluru,KA,560073,9567448383
1234568381,Dr. Neha Rao,Psychiatry,8 Main Road,Pune,MH,411039,9949811760
1234568382,Dr. Ananya Malhotra,Psychiatry,194 Main Road,Pune,MH,411092,9869704804
1234568383,Dr. Arjun Gupta,Oncology,42 Main Road,Bengaluru,KA,560044,9675166107
1234568384,Dr. Aarav Malhotra,Pediatrics,48 Main Road,Bengaluru,KA,560099,9914695543
1234568385,Dr. Reyansh Gupta,Dermatology,84 Main Road,Hyderabad,TS,500015,9775197618
1234568386,Dr. Priyanka Nair,Dermatology,126 Main Road,Delhi,DL,110091,9118224477
1234568387,Dr. Arjun Malhotra,Neurology,126 Main Road,Ahmedabad,GJ,380015,9757596434
1234568388,Dr. Aarav Mehta,Cardiology,1 Main Road,Kolkata,WB,700062,9489321807
1234568389,Dr. Arjun Malhotra,Neurology,61 Main Road,Kolkata,WB,700069,9787704856
1234568390,Dr. Aditya Patel,General Medicine,127 Main Road,Kolkata,WB,700077,9811743402
1234568391,Dr. Priyanka Mehta,Pediatrics,131 Main Road,Pune,MH,411031,9203326721
1234568392,Dr. Kavya Nair,Orthopedics,170 Main Road,Chennai,TN,600025,9302736820
1234568393,Dr. Ishaan Chatterjee,Psychiatry,3 Main Road,Delhi,DL,110037,9637557421
1234568394,Dr. Riya Nair,Orthopedics,111 Main Road,Chennai,TN,600082,9782687710
1234568395,Dr. Ishaan Sharma,Psychiatry,131 Main Road,Kolkata,WB,700013,9315187303
1234568396,Dr. Arjun Kulkarni,Orthopedics,152 Main Road,Chennai,TN,600098,9227054703
1234568397,Dr. Arjun Sharma,Dermatology,164 Main Road,Delhi,DL,110025,9740193376
1234568398,Dr. Aarav Chatterjee,ENT,17 Main Road,Pune,MH,411089,9957798248
1234568399,Dr. Arjun Nair,Dermatology,142 Main Road,Mumbai,MH,400026,9975799047
1234568400,Dr. Pooja Chatterjee,Cardiology,12 Main Road,Chennai,TN,600040,9137879043
1234568401,Dr. Riya Sharma,Orthopedics,189 Main Road,Chennai,TN,600026,9384460755
1234568402,Dr. Ananya Gupta,Gynecology,49 Main Road,Chennai,TN,600013,9480869240
1234568403,Dr. Aditya Sharma,Orthopedics,26 Main Road,Pune,MH,411031,9507833670
1234568404,Dr. Arjun Sharma,Pediatrics,100 Main Road,Pune,MH,411038,9268792393
1234568405,Dr. Reyansh Patel,Orthopedics,29 Main Road,Delhi,DL,110068,9121613551
1234568406,Dr. Arjun Iyer,Psychiatry,155 Main Road,Hyderabad,TS,500015,9464818343
1234568407,Dr. Kavya Gupta,Pediatrics,161 Main Road,Delhi,DL,110090,9220523192
1234568408,Dr. Priyanka Mehta,ENT,50 Main Road,Delhi,DL,110037,9770738866
1234568409,Dr. Vivaan Mehta,Oncology,134 Main Road,Kolkata,WB,700091,9270077473
1234568410,Dr. Arjun Malhotra,Cardiology,96 Main Road,Delhi,DL,110089,9253369419
1234568411,Dr. Aditya Malhotra,Cardiology,26 Main Road,Bengaluru,KA,560088,9977480873
1234568412,Dr. Reyansh Patel,Cardiology,178 Main Road,Pune,MH,411032,9167286872
1234568413,Dr. Aditya Rao,Dermatology,132 Main Road,Ahmedabad,GJ,380099,9727121253
1234568414,Dr. Riya Nair,Oncology,17 Main Road,Bengaluru,KA,560025,9147327707
1234568415,Dr. Ananya Nair,Orthopedics,48 Main Road,Bengaluru,KA,560019,9936262516
1234568416,Dr. Pooja Verma,General Medicine,80 Main Road,Chennai,TN,600014,9391806789
1234568417,Dr. Riya Sharma,Dermatology,24 Main Road,Ahmedabad,GJ,380051,9733836232
1234568418,Dr. Aditya Sharma,Orthopedics,130 Main Road,Mumbai,MH,400039,9295001575
1234568419,Dr. Aditya Iyer,Gynecology,54 Main Road,Kolkata,WB,700041,9726634993
1234568420,Dr. Ishaan Nair,Gynecology,50 Main Road,Hyderabad,TS,500097,9245701848
1234568421,Dr. Sakshi Kulkarni,Pediatrics,182 Main Road,Chennai,TN,600081,9735700749
1234568422,Dr. Reyansh Mehta,General Medicine,6 Main Road,Pune,MH,411069,9752834298
1234568423,Dr. Aditya Rao,Pediatrics,86 Main Road,Kolkata,WB,700031,9326329055
1234568424,Dr. Aditya Mehta,Dermatology,12 Main Road,Hyderabad,TS,500049,9604948711
1234568425,Dr. Vihaan Singh,Psychiatry,187 Main Road,Hyderabad,TS,500057,9134922515
1234568426,Dr. Neha Verma,Oncology,138 Main Road,Delhi,DL,110037,9434958224
1234568427,Dr. Aarav Rao,Dermatology,107 Main Road,Pune,MH,411069,9284022244
1234568428,Dr. Pooja Chatterjee,General Medicine,54 Main Road,Hyderabad,TS,500024,9994635483
1234568429,Dr. Priyanka Iyer,Cardiology,98 Main Road,Mumbai,MH,400035,9895913973
1234568430,Dr. Aditya Verma,Dermatology,30 Main Road,Delhi,DL,110088,9298939301
1234568431,Dr. Reyansh Gupta,Cardiology,198 Main Road,Hyderabad,TS,500096,9460878554
1234568432,Dr. Vihaan Verma,General Medicine,185 Main Road,Mumbai,MH,400034,9954886249
1234568433,Dr. Aditya Sharma,General Medicine,115 Main Road,Bengaluru,KA,560045,9977323456
1234568434,Dr. Ayaan Kulkarni,Cardiology,60 Main Road,Pune,MH,411015,9133991174
1234568435,Dr. Priyanka Mehta,General Medicine,40 Main Road,Delhi,DL,110012,9929056477
1234568436,Dr. Ishaan Verma,Oncology,152 Main Road,Bengaluru,KA,560067,9860649355
1234568437,Dr. Arjun Nair,General Medicine,123 Main Road,Pune,MH,411041,9356179682
1234568438,Dr. Vihaan Gupta,Dermatology,85 Main Road,Ahmedabad,GJ,380030,9501226971
1234568439,Dr. Priyanka Mehta,Psychiatry,114 Main Road,Kolkata,WB,700028,9121595934
1234568440,Dr. Vihaan Iyer,Orthopedics,53 Main Road,Pune,MH,411018,9542258159
1234568441,Dr. Reyansh Rao,Neurology,156 Main Road,Kolkata,WB,700010,9239231872
1234568442,Dr. Pooja Mehta,Pediatrics,107 Main Road,Ahmedabad,GJ,380085,9400331897
1234568443,Dr. Aarav Chatterjee,Pediatrics,30 Main Road,Mumbai,MH,400046,9531279347
1234568444,Dr. Aarav Patel,ENT,189 Main Road,Mumbai,MH,400019,9680971502
1234568445,Dr. Neha Nair,General Medicine,50 Main Road,Chennai,TN,600087,9494334340
1234568446,Dr. Reyansh Patel,Orthopedics,169 Main Road,Delhi,DL,110011,9509848087
1234568447,Dr. Aditya Sharma,Orthopedics,35 Main Road,Delhi,DL,110084,9264038781
1234568448,Dr. Aditya Gupta,General Medicine,154 Main Road,Bengaluru,KA,560094,9570070344
1234568449,Dr. Ananya Sharma,Pediatrics,138 Main Road,Ahmedabad,GJ,380026,9454547392
1234568450,Dr. Ishaan Iyer,Orthopedics,53 Main Road,Pune,MH,411080,9653168060
1234568451,Dr. Neha Chatterjee,ENT,163 Main Road,Ahmedabad,GJ,380058,9759264063
1234568452,Dr. Priyanka Kulkarni,General Medicine,98 Main Road,Pune,MH,411097,9818475698
1234568453,Dr. Riya Rao,Gynecology,156 Main Road,Chennai,TN,600089,9880234904
1234568454,Dr. Neha Rao,Gynecology,79 Main Road,Hyderabad,TS,500055,9325139609
1234568455,Dr. Sakshi Nair,Cardiology,108 Main Road,Bengaluru,KA,560057,9884837466
1234568456,Dr. Vivaan Patel,Orthopedics,128 Main Road,Ahmedabad,GJ,380013,9333734284
1234568457,Dr. Vihaan Iyer,Pediatrics,167 Main Road,Ahmedabad,GJ,380048,9993252896
1234568458,Dr. Riya Rao,Neurology,27 Main Road,Mumbai,MH,400050,9991638662
1234568459,Dr. Kavya Sharma,Pediatrics,74 Main Road,Delhi,DL,110052,9634472977
1234568460,Dr. Ananya Singh,Psychiatry,141 Main Road,Kolkata,WB,700086,9666252050
1234568461,Dr. Vihaan Chatterjee,Dermatology,118 Main Road,Delhi,DL,110024,9136579149
1234568462,Dr. Priyanka Rao,ENT,148 Main Road,Hyderabad,TS,500081,9522909812
1234568463,Dr. Ananya Verma,Oncology,105 Main Road,Delhi,DL,110044,9172563478
1234568464,Dr. Sakshi Nair,Gynecology,46 Main Road,Chennai,TN,600042,9224811297
1234568465,Dr. Sakshi Kulkarni,Cardiology,162 Main Road,Delhi,DL,110016,9493393322
1234568466,Dr. Arjun Patel,Oncology,95 Main Road,Delhi,DL,110052,9991784477
1234568467,Dr. Aditya Verma,Gynecology,12 Main Road,Chennai,TN,600018,9889723375
1234568468,Dr. Ananya Verma,Psychiatry,3 Main Road,Delhi,DL,110016,9773600672
1234568469,Dr. Aarav Patel,Orthopedics,158 Main Road,Pune,MH,411019,9975460533
1234568470,Dr. Ayaan Patel,Neurology,2 Main Road,Delhi,DL,110063,9357543609
1234568471,Dr. Reyansh Kulkarni,Psychiatry,112 Main Road,Pune,MH,411050,9473611445
1234568472,Dr. Kavya Patel,Pediatrics,94 Main Road,Ahmedabad,GJ,380015,9274072340
1234568473,Dr. Priyanka Mehta,ENT,140 Main Road,Bengaluru,KA,560087,9495222130
1234568474,Dr. Ananya Mehta,Cardiology,138 Main Road,Mumbai,MH,400045,9232665613
1234568475,Dr. Aarav Singh,Dermatology,46 Main Road,Hyderabad,TS,500014,9818708017
1234568476,Dr. Pooja Nair,General Medicine,148 Main Road,Ahmedabad,GJ,380088,9642532506
1234568477,Dr. Reyansh Kulkarni,Pediatrics,24 Main Road,Kolkata,WB,700025,9311315284
1234568478,Dr. Arjun Malhotra,Neurology,78 Main Road,Bengaluru,KA,560083,9177843104
1234568479,Dr. Priyanka Chatterjee,Cardiology,186 Main Road,Bengaluru,KA,560011,9477013173
1234568480,Dr. Sakshi Iyer,Neurology,179 Main Road,Bengaluru,KA,560019,9580463394
1234568481,Dr. Aarav Rao,General Medicine,112 Main Road,Pune,MH,411098,9626547024
1234568482,Dr. Aarav Mehta,ENT,179 Main Road,Delhi,DL,110089,9779901211
1234568483,Dr. Pooja Singh,Dermatology,62 Main Road,Delhi,DL,110067,9643289457
1234568484,Dr. Pooja Malhotra,Dermatology,66 Main Road,Kolkata,WB,700076,9596957389
1234568485,Dr. Arjun Sharma,Oncology,152 Main Road,Kolkata,WB,700022,9628848010
1234568486,Dr. Ishaan Kulkarni,ENT,86 Main Road,Kolkata,WB,700019,9661590028
1234568487,Dr. Priyanka Sharma,Neurology,12 Main Road,Chennai,TN,600037,9669567021
1234568488,Dr. Ayaan Iyer,Oncology,50 Main Road,Delhi,DL,110014,9546858750
1234568489,Dr. Vihaan Singh,Neurology,60 Main Road,Hyderabad,TS,500094,9137120563
1234568490,Dr. Aditya Singh,Pediatrics,45 Main Road,Kolkata,WB,700077,9896663444
1234568491,Dr. Kavya Patel,Psychiatry,41 Main Road,Bengaluru,KA,560037,9698851273
1234568492,Dr. Sakshi Kulkarni,ENT,90 Main Road,Pune,MH,411026,9164817490
1234568493,Dr. Reyansh Mehta,Cardiology,89 Main Road,Bengaluru,KA,560042,9507661681
1234568494,Dr. Vihaan Verma,Cardiology,129 Main Road,Pune,MH,411092,9828128972
1234568495,Dr. Priyanka Rao,Orthopedics,166 Main Road,Mumbai,MH,400063,9232039350
1234568496,Dr. Vihaan Singh,Pediatrics,82 Main Road,Chennai,TN,600047,9917271135
1234568497,Dr. Ananya Verma,Dermatology,15 Main Road,Ahmedabad,GJ,380053,9849367424
1234568498,Dr. Riya Chatterjee,Cardiology,10 Main Road,Pune,MH,411043,9421823327
1234568499,Dr. Reyansh Gupta,Orthopedics,134 Main Road,Delhi,DL,110055,9881239040
1234568500,Dr. Reyansh Chatterjee,Psychiatry,95 Main Road,Hyderabad,TS,500087,9203509506
1234568501,Dr. Ayaan Chatterjee,Oncology,93 Main Road,Delhi,DL,110047,9339671720
1234568502,Dr. Reyansh Mehta,ENT,198 Main Road,Pune,MH,411070,9641941341
1234568503,Dr. Vivaan Iyer,Orthopedics,155 Main Road,Ahmedabad,GJ,380068,9189822727
1234568504,Dr. Sakshi Patel,ENT,161 Main Road,Bengaluru,KA,560090,9448269653
1234568505,Dr. Kavya Malhotra,Dermatology,188 Main Road,Kolkata,WB,700074,9877058113
1234568506,Dr. Riya Nair,Orthopedics,35 Main Road,Hyderabad,TS,500024,9136536770
1234568507,Dr. Reyansh Sharma,Cardiology,91 Main Road,Ahmedabad,GJ,380075,9696934922
1234568508,Dr. Aarav Verma,ENT,112 Main Road,Bengaluru,KA,560063,9966973940
1234568509,Dr. Ayaan Sharma,ENT,135 Main Road,Hyderabad,TS,500060,9858473789
1234568510,Dr. Neha Rao,General Medicine,106 Main Road,Pune,MH,411081,9306519982
1234568511,Dr. Ayaan Chatterjee,Gynecology,24 Main Road,Bengaluru,KA,560054,9415393234
1234568512,Dr. Priyanka Nair,Psychiatry,1 Main Road,Bengaluru,KA,560069,9129061049
1234568513,Dr. Aditya Kulkarni,Neurology,29 Main Road,Bengaluru,KA,560076,9628921800
1234568514,Dr. Priyanka Verma,Cardiology,3 Main Road,Chennai,TN,600021,9142339933
1234568515,Dr. Vihaan Rao,Neurology,79 Main Road,Mumbai,MH,400059,9151484064
1234568516,Dr. Priyanka Sharma,Psychiatry,54 Main Road,Mumbai,MH,400051,9940075221
1234568517,Dr. Ayaan Singh,Psychiatry,195 Main Road,Bengaluru,KA,560096,9396544178
1234568518,Dr. Sakshi Iyer,Dermatology,152 Main Road,Chennai,TN,600038,9123559547
1234568519,Dr. Arjun Rao,Gynecology,89 Main Road,Delhi,DL,110068,9860602710
1234568520,Dr. Arjun Chatterjee,Neurology,44 Main Road,Pune,MH,411097,9841266632
1234568521,Dr. Reyansh Malhotra,Dermatology,52 Main Road,Delhi,DL,110016,9573554456
1234568522,Dr. Sakshi Rao,General Medicine,137 Main Road,Chennai,TN,600012,9600676876
1234568523,Dr. Vihaan Verma,Neurology,198 Main Road,Pune,MH,411077,9302602947
1234568524,Dr. Aditya Chatterjee,Oncology,107 Main Road,Chennai,TN,600025,9507402033
1234568525,Dr. Vihaan Patel,Pediatrics,31 Main Road,Ahmedabad,GJ,380078,9110738012
1234568526,Dr. Pooja Kulkarni,Pediatrics,13 Main Road,Mumbai,MH,400038,9554044750
1234568527,Dr. Vihaan Sharma,General Medicine,14 Main Road,Mumbai,MH,400053,9613205539
1234568528,Dr. Ananya Malhotra,Orthopedics,38 Main Road,Delhi,DL,110031,9670096111
1234568529,Dr. Sakshi Kulkarni,Dermatology,26 Main Road,Hyderabad,TS,500094,9434655683
1234568530,Dr. Pooja Chatterjee,Dermatology,153 Main Road,Mumbai,MH,400034,9249824198
1234568531,Dr. Ananya Rao,Orthopedics,95 Main Road,Chennai,TN,600073,9248782191
1234568532,Dr. Ishaan Gupta,Dermatology,6 Main Road,Pune,MH,411070,9999727721
1234568533,Dr. Arjun Chatterjee,Psychiatry,41 Main Road,Chennai,TN,600091,9265324392
1234568534,Dr. Ayaan Kulkarni,Gynecology,145 Main Road,Ahmedabad,GJ,380038,9696585355
1234568535,Dr. Vivaan Rao,ENT,60 Main Road,Bengaluru,KA,560082,9442183556
1234568536,Dr. Priyanka Sharma,Orthopedics,83 Main Road,Delhi,DL,110054,9554307512
1234568537,Dr. Ayaan Verma,Pediatrics,21 Main Road,Kolkata,WB,700045,9445367555
1234568538,Dr. Vivaan Singh,Dermatology,175 Main Road,Hyderabad,TS,500028,9381757649
1234568539,Dr. Priyanka Chatterjee,Pediatrics,198 Main Road,Pune,MH,411060,9707147785
1234568540,Dr. Aditya Patel,Oncology,142 Main Road,Hyderabad,TS,500026,9495062480
1234568541,Dr. Priyanka Gupta,Orthopedics,19 Main Road,Chennai,TN,600090,9807448130
1234568542,Dr. Priyanka Mehta,ENT,12 Main Road,Mumbai,MH,400090,9264450025
1234568543,Dr. Reyansh Mehta,General Medicine,131 Main Road,Mumbai,MH,400053,9610058547
1234568544,Dr. Vivaan Malhotra,Orthopedics,57 Main Road,Kolkata,WB,700030,9477430087
1234568545,Dr. Pooja Sharma,Orthopedics,138 Main Road,Hyderabad,TS,500053,9769750478
1234568546,Dr. Reyansh Iyer,Oncology,199 Main Road,Chennai,TN,600012,9189591063
1234568547,Dr. Vihaan Kulkarni,Cardiology,19 Main Road,Hyderabad,TS,500077,9657711592
1234568548,Dr. Ananya Kulkarni,Pediatrics,139 Main Road,Ahmedabad,GJ,380054,9836181359
1234568549,Dr. Vivaan Singh,Oncology,177 Main Road,Kolkata,WB,700079,9855084461
1234568550,Dr. Pooja Sharma,Cardiology,7 Main Road,Ahmedabad,GJ,380085,9530870118
1234568551,Dr. Arjun Sharma,Oncology,3 Main Road,Hyderabad,TS,500077,9646775031
1234568552,Dr. Aditya Singh,Oncology,77 Main Road,Chennai,TN,600087,9868877929
1234568553,Dr. Riya Rao,Gynecology,92 Main Road,Chennai,TN,600029,9616380319
1234568554,Dr. Ananya Rao,Psychiatry,111 Main Road,Ahmedabad,GJ,380096,9465338165
1234568555,Dr. Pooja Singh,Neurology,57 Main Road,Mumbai,MH,400089,9400282568
1234568556,Dr. Priyanka Patel,Neurology,20 Main Road,Pune,MH,411066,9535379630
1234568557,Dr. Vihaan Chatterjee,Neurology,128 Main Road,Pune,MH,411090,9369652798
1234568558,Dr. Reyansh Verma,Neurology,178 Main Road,Hyderabad,TS,500087,9910540727
1234568559,Dr. Aditya Chatterjee,ENT,137 Main Road,Kolkata,WB,700055,9356235581
1234568560,Dr. Priyanka Chatterjee,Oncology,21 Main Road,Delhi,DL,110046,9696639862
1234568561,Dr. Pooja Mehta,Psychiatry,73 Main Road,Bengaluru,KA,560047,9364929257
1234568562,Dr. Aditya Chatterjee,Orthopedics,104 Main Road,Mumbai,MH,400026,9764905753
1234568563,Dr. Aditya Nair,Pediatrics,177 Main Road,Bengaluru,KA,560017,9532788101
1234568564,Dr. Pooja Mehta,General Medicine,116 Main Road,Kolkata,WB,700085,9106736621
1234568565,Dr. Riya Rao,Cardiology,101 Main Road,Hyderabad,TS,500092,9106874026
1234568566,Dr. Ayaan Chatterjee,Pediatrics,153 Main Road,Hyderabad,TS,500088,9123700510
1234568567,Dr. Sakshi Nair,Gynecology,37 Main Road,Mumbai,MH,400057,9904440340
1234568568,Dr. Pooja Rao,Psychiatry,52 Main Road,Mumbai,MH,400095,9377850478
1234568569,Dr. Neha Nair,Dermatology,1 Main Road,Bengaluru,KA,560025,9539878311
1234568570,Dr. Arjun Mehta,Orthopedics,9 Main Road,Mumbai,MH,400077,9426225997
1234568571,Dr. Riya Singh,Orthopedics,182 Main Road,Mumbai,MH,400081,9284654659
1234568572,Dr. Vivaan Chatterjee,Oncology,101 Main Road,Hyderabad,TS,500070,9217735829
1234568573,Dr. Ananya Kulkarni,Gynecology,28 Main Road,Delhi,DL,110026,9981194206
1234568574,Dr. Sakshi Malhotra,Psychiatry,180 Main Road,Delhi,DL,110064,9630387374
1234568575,Dr. Ananya Malhotra,Orthopedics,75 Main Road,Hyderabad,TS,500099,9826278834
1234568576,Dr. Ayaan Rao,Neurology,42 Main Road,Pune,MH,411032,9456985782
1234568577,Dr. Riya Gupta,Neurology,42 Main Road,Hyderabad,TS,500030,9139542513
1234568578,Dr. Ananya Sharma,Pediatrics,113 Main Road,Chennai,TN,600025,9359104042
1234568579,Dr. Vivaan Chatterjee,Oncology,38 Main Road,Pune,MH,411011,9491433496
1234568580,Dr. Sakshi Malhotra,Dermatology,132 Main Road,Kolkata,WB,700067,9245057478
1234568581,Dr. Aarav Singh,Oncology,76 Main Road,Chennai,TN,600093,9147603139
1234568582,Dr. Pooja Gupta,Dermatology,48 Main Road,Kolkata,WB,700086,9244794131
1234568583,Dr. Neha Nair,Neurology,171 Main Road,Mumbai,MH,400063,9488507292
1234568584,Dr. Riya Rao,Orthopedics,192 Main Road,Kolkata,WB,700051,9905392658
1234568585,Dr. Vihaan Iyer,Cardiology,159 Main Road,Kolkata,WB,700092,9283976534
1234568586,Dr. Ananya Kulkarni,Psychiatry,139 Main Road,Hyderabad,TS,500069,9692886428
1234568587,Dr. Priyanka Gupta,Psychiatry,170 Main Road,Hyderabad,TS,500018,9879335007
1234568588,Dr. Kavya Mehta,Cardiology,65 Main Road,Delhi,DL,110034,9981309146
1234568589,Dr. Vihaan Mehta,Oncology,4 Main Road,Ahmedabad,GJ,380089,9398713494
1234568590,Dr. Sakshi Singh,Dermatology,122 Main Road,Bengaluru,KA,560067,9794875476
1234568591,Dr. Pooja Mehta,Neurology,39 Main Road,Pune,MH,411027,9530781822
1234568592,Dr. Neha Gupta,Neurology,4 Main Road,Ahmedabad,GJ,380016,9668676500
1234568593,Dr. Reyansh Gupta,Oncology,8 Main Road,Kolkata,WB,700024,9754933530
1234568594,Dr. Aarav Singh,Pediatrics,139 Main Road,Mumbai,MH,400043,9167575020
1234568595,Dr. Ayaan Sharma,Dermatology,189 Main Road,Hyderabad,TS,500073,9687676991
1234568596,Dr. Vihaan Verma,ENT,136 Main Road,Hyderabad,TS,500038,9775319147
1234568597,Dr. Aditya Malhotra,General Medicine,92 Main Road,Ahmedabad,GJ,380086,9607676575
1234568598,Dr. Sakshi Iyer,ENT,176 Main Road,Kolkata,WB,700072,9543575022
1234568599,Dr. Pooja Chatterjee,Orthopedics,66 Main Road,Kolkata,WB,700045,9270570088
1234568600,Dr. Ishaan Kulkarni,Psychiatry,91 Main Road,Kolkata,WB,700089,9819108234
1234568601,Dr. Aarav Iyer,Pediatrics,187 Main Road,Delhi,DL,110086,9836518134
1234568602,Dr. Ananya Rao,Cardiology,167 Main Road,Hyderabad,TS,500026,9651433595
1234568603,Dr. Aarav Kulkarni,ENT,87 Main Road,Kolkata,WB,700093,9507252773
1234568604,Dr. Pooja Nair,Gynecology,103 Main Road,Delhi,DL,110067,9659863788
1234568605,Dr. Riya Gupta,Dermatology,86 Main Road,Mumbai,MH,400029,9636250420
1234568606,Dr. Neha Nair,Cardiology,183 Main Road,Delhi,DL,110091,9459112320
1234568607,Dr. Sakshi Patel,Orthopedics,20 Main Road,Hyderabad,TS,500056,9128725958
1234568608,Dr. Pooja Rao,Gynecology,99 Main Road,Ahmedabad,GJ,380064,9859349339
1234568609,Dr. Vivaan Singh,Cardiology,179 Main Road,Chennai,TN,600016,9198330283
1234568610,Dr. Pooja Sharma,Gynecology,46 Main Road,Delhi,DL,110047,9479705320
1234568611,Dr. Sakshi Singh,ENT,2 Main Road,Ahmedabad,GJ,380049,9463537316
1234568612,Dr. Arjun Nair,Neurology,32 Main Road,Ahmedabad,GJ,380047,9185337212
1234568613,Dr. Ananya Chatterjee,Gynecology,40 Main Road,Hyderabad,TS,500085,9577382587
1234568614,Dr. Vivaan Kulkarni,Neurology,81 Main Road,Bengaluru,KA,560085,9478699641
1234568615,Dr. Ishaan Patel,Cardiology,87 Main Road,Chennai,TN,600048,9370256430
1234568616,Dr. Sakshi Sharma,Neurology,56 Main Road,Ahmedabad,GJ,380091,9362654490
1234568617,Dr. Ayaan Gupta,General Medicine,9 Main Road,Hyderabad,TS,500046,9771295999
1234568618,Dr. Aditya Mehta,Oncology,58 Main Road,Chennai,TN,600046,9532284249
1234568619,Dr. Pooja Kulkarni,Gynecology,63 Main Road,Hyderabad,TS,500017,9165581843
1234568620,Dr. Ayaan Verma,Pediatrics,133 Main Road,Mumbai,MH,400040,9714417415
1234568621,Dr. Ananya Verma,Orthopedics,78 Main Road,Bengaluru,KA,560047,9420852402
1234568622,Dr. Neha Patel,Orthopedics,183 Main Road,Delhi,DL,110019,9691005139
1234568623,Dr. Reyansh Kulkarni,Dermatology,11 Main Road,Kolkata,WB,700014,9549136969
1234568624,Dr. Ayaan Rao,Oncology,53 Main Road,Delhi,DL,110057,9443716732
1234568625,Dr. Arjun Sharma,Cardiology,124 Main Road,Ahmedabad,GJ,380034,9903615121
1234568626,Dr. Aditya Rao,Psychiatry,107 Main Road,Delhi,DL,110045,9710615862
1234568627,Dr. Pooja Verma,Neurology,190 Main Road,Hyderabad,TS,500066,9161584775
1234568628,Dr. Vivaan Kulkarni,Gynecology,141 Main Road,Kolkata,WB,700028,9389233498
1234568629,Dr. Reyansh Mehta,Pediatrics,199 Main Road,Pune,MH,411024,9236338295
1234568630,Dr. Ayaan Malhotra,Dermatology,152 Main Road,Hyderabad,TS,500023,9918947551
1234568631,Dr. Ananya Nair,General Medicine,57 Main Road,Mumbai,MH,400030,9857684021
1234568632,Dr. Aarav Iyer,General Medicine,122 Main Road,Mumbai,MH,400051,9691499318
1234568633,Dr. Sakshi Malhotra,Neurology,52 Main Road,Mumbai,MH,400094,9692549019
1234568634,Dr. Vihaan Sharma,Orthopedics,50 Main Road,Bengaluru,KA,560063,9962169312
1234568635,Dr. Aditya Patel,Pediatrics,7 Main Road,Hyderabad,TS,500036,9527245283
1234568636,Dr. Ishaan Nair,Pediatrics,58 Main Road,Pune,MH,411012,9382514462
1234568637,Dr. Pooja Singh,Pediatrics,58 Main Road,Bengaluru,KA,560022,9942731702
1234568638,Dr. Sakshi Malhotra,Neurology,46 Main Road,Mumbai,MH,400059,9776918087
1234568639,Dr. Riya Gupta,Neurology,194 Main Road,Delhi,DL,110099,9910839277
1234568640,Dr. Ishaan Patel,Psychiatry,129 Main Road,Chennai,TN,600048,9706463720
1234568641,Dr. Vivaan Chatterjee,Orthopedics,100 Main Road,Ahmedabad,GJ,380097,9101504862
1234568642,Dr. Pooja Rao,Pediatrics,44 Main Road,Ahmedabad,GJ,380045,9580239502
1234568643,Dr. Reyansh Sharma,Oncology,172 Main Road,Mumbai,MH,400026,9590394638
1234568644,Dr. Vivaan Rao,Neurology,31 Main Road,Kolkata,WB,700042,9200335719
1234568645,Dr. Arjun Chatterjee,ENT,18 Main Road,Mumbai,MH,400094,9796288300
1234568646,Dr. Pooja Verma,Cardiology,179 Main Road,Mumbai,MH,400045,9136536654
1234568647,Dr. Pooja Iyer,Neurology,46 Main Road,Ahmedabad,GJ,380039,9152327760
1234568648,Dr. Vivaan Singh,Oncology,49 Main Road,Chennai,TN,600070,9191570491
1234568649,Dr. Ayaan Patel,Dermatology,170 Main Road,Chennai,TN,600073,9388278861
1234568650,Dr. Reyansh Mehta,Psychiatry,81 Main Road,Hyderabad,TS,500057,9721374944
1234568651,Dr. Vihaan Kulkarni,Gynecology,94 Main Road,Mumbai,MH,400049,9570588836
1234568652,Dr. Pooja Singh,Gynecology,179 Main Road,Delhi,DL,110021,9342197546
1234568653,Dr. Ananya Patel,Cardiology,180 Main Road,Kolkata,WB,700022,9689265826
1234568654,Dr. Vivaan Verma,Orthopedics,148 Main Road,Hyderabad,TS,500088,9296519025
1234568655,Dr. Arjun Singh,Oncology,5 Main Road,Mumbai,MH,400069,9572712248
1234568656,Dr. Sakshi Nair,Gynecology,117 Main Road,Delhi,DL,110071,9804706595
1234568657,Dr. Riya Rao,Oncology,116 Main Road,Pune,MH,411042,9812767952
1234568658,Dr. Pooja Singh,Oncology,7 Main Road,Mumbai,MH,400041,9555164039
1234568659,Dr. Kavya Mehta,ENT,147 Main Road,Delhi,DL,110066,9444642486
1234568660,Dr. Pooja Gupta,Oncology,44 Main Road,Chennai,TN,600039,9509565424
1234568661,Dr. Vihaan Rao,Dermatology,19 Main Road,Mumbai,MH,400027,9699670597
1234568662,Dr. Kavya Nair,Oncology,193 Main Road,Bengaluru,KA,560099,9186645323
1234568663,Dr. Arjun Chatterjee,Psychiatry,150 Main Road,Delhi,DL,110056,9795383922
1234568664,Dr. Pooja Kulkarni,Neurology,6 Main Road,Mumbai,MH,400078,9741005606
1234568665,Dr. Vivaan Gupta,ENT,127 Main Road,Delhi,DL,110095,9279370770
1234568666,Dr. Ishaan Patel,General Medicine,118 Main Road,Bengaluru,KA,560031,9298302272
1234568667,Dr. Vihaan Rao,Oncology,119 Main Road,Pune,MH,411041,9104229824
1234568668,Dr. Priyanka Singh,Orthopedics,7 Main Road,Kolkata,WB,700071,9575842405
1234568669,Dr. Vivaan Verma,Orthopedics,145 Main Road,Mumbai,MH,400028,9960997276
1234568670,Dr. Vihaan Singh,General Medicine,172 Main Road,Hyderabad,TS,500084,9298263821
1234568671,Dr. Arjun Singh,ENT,150 Main Road,Pune,MH,411032,9190881065
1234568672,Dr. Reyansh Iyer,Gynecology,117 Main Road,Mumbai,MH,400032,9734776544
1234568673,Dr. Aarav Iyer,Oncology,83 Main Road,Pune,MH,411042,9309474276
1234568674,Dr. Vivaan Mehta,Psychiatry,101 Main Road,Hyderabad,TS,500078,9955677637
1234568675,Dr. Riya Malhotra,ENT,93 Main Road,Ahmedabad,GJ,380092,9436623944
1234568676,Dr. Pooja Sharma,Dermatology,142 Main Road,Delhi,DL,110034,9614982099
1234568677,Dr. Neha Singh,Psychiatry,182 Main Road,Hyderabad,TS,500048,9856312895
1234568678,Dr. Kavya Patel,General Medicine,140 Main Road,Chennai,TN,600029,9870605199
1234568679,Dr. Vihaan Kulkarni,ENT,85 Main Road,Pune,MH,411097,9242770024
1234568680,Dr. Kavya Nair,Dermatology,49 Main Road,Chennai,TN,600089,9709213538
1234568681,Dr. Ishaan Singh,ENT,100 Main Road,Kolkata,WB,700043,9425841569
1234568682,Dr. Kavya Nair,Pediatrics,136 Main Road,Pune,MH,411098,9900542960
1234568683,Dr. Arjun Patel,Dermatology,185 Main Road,Hyderabad,TS,500078,9993381108
1234568684,Dr. Ishaan Sharma,Oncology,167 Main Road,Hyderabad,TS,500095,9193633425
1234568685,Dr. Vivaan Nair,Oncology,153 Main Road,Ahmedabad,GJ,380086,9350554216
1234568686,Dr. Kavya Chatterjee,Pediatrics,85 Main Road,Kolkata,WB,700069,9702397501
1234568687,Dr. Sakshi Gupta,Neurology,127 Main Road,Delhi,DL,110094,9362207855
1234568688,Dr. Ayaan Malhotra,Oncology,99 Main Road,Delhi,DL,110056,9929586551
1234568689,Dr. Pooja Patel,Orthopedics,26 Main Road,Chennai,TN,600022,9486721335
1234568690,Dr. Pooja Kulkarni,Psychiatry,74 Main Road,Mumbai,MH,400016,9162143986
1234568691,Dr. Vivaan Rao,ENT,41 Main Road,Bengaluru,KA,560059,9932440207
1234568692,Dr. Aarav Chatterjee,Orthopedics,94 Main Road,Bengaluru,KA,560062,9928871131
1234568693,Dr. Riya Mehta,Cardiology,127 Main Road,Mumbai,MH,400047,9216666361
1234568694,Dr. Sakshi Malhotra,Neurology,106 Main Road,Hyderabad,TS,500013,9645023947
1234568695,Dr. Ananya Verma,General Medicine,21 Main Road,Ahmedabad,GJ,380038,9803988038
1234568696,Dr. Riya Kulkarni,Cardiology,92 Main Road,Kolkata,WB,700029,9254474660
1234568697,Dr. Ayaan Singh,Psychiatry,2 Main Road,Pune,MH,411076,9721206317
1234568698,Dr. Aditya Sharma,Gynecology,173 Main Road,Chennai,TN,600060,9703563240
1234568699,Dr. Ayaan Rao,Oncology,66 Main Road,Hyderabad,TS,500083,9990966866
1234568700,Dr. Reyansh Verma,Gynecology,160 Main Road,Bengaluru,KA,560088,9605367108
1234568701,Dr. Sakshi Verma,Psychiatry,124 Main Road,Bengaluru,KA,560032,9844368389
1234568702,Dr. Reyansh Patel,Psychiatry,121 Main Road,Mumbai,MH,400076,9951510262
1234568703,Dr. Ishaan Nair,Orthopedics,143 Main Road,Mumbai,MH,400011,9618949582
1234568704,Dr. Ayaan Verma,Dermatology,28 Main Road,Hyderabad,TS,500030,9194029491
1234568705,Dr. Ayaan Mehta,Orthopedics,23 Main Road,Pune,MH,411096,9287651572
1234568706,Dr. Priyanka Patel,ENT,10 Main Road,Hyderabad,TS,500039,9127264363
1234568707,Dr. Kavya Verma,Cardiology,53 Main Road,Delhi,DL,110039,9617294874
1234568708,Dr. Vihaan Malhotra,ENT,66 Main Road,Pune,MH,411044,9490166465
1234568709,Dr. Neha Iyer,Orthopedics,55 Main Road,Pune,MH,411018,9856786548
1234568710,Dr. Aditya Mehta,General Medicine,154 Main Road,Bengaluru,KA,560031,9313737014
1234568711,Dr. Sakshi Chatterjee,Orthopedics,78 Main Road,Ahmedabad,GJ,380031,9390238918
1234568712,Dr. Kavya Iyer,Psychiatry,6 Main Road,Bengaluru,KA,560024,9296660470
1234568713,Dr. Aditya Nair,Dermatology,1 Main Road,Kolkata,WB,700041,9694606152
1234568714,Dr. Pooja Singh,Pediatrics,42 Main Road,Mumbai,MH,400081,9332522330
1234568715,Dr. Neha Singh,Pediatrics,30 Main Road,Kolkata,WB,700094,9760488332
1234568716,Dr. Sakshi Kulkarni,Orthopedics,149 Main Road,Hyderabad,TS,500062,9262706616
1234568717,Dr. Pooja Mehta,General Medicine,43 Main Road,Kolkata,WB,700062,9122460069
1234568718,Dr. Neha Patel,Cardiology,111 Main Road,Bengaluru,KA,560022,9263983617
1234568719,Dr. Vivaan Mehta,Psychiatry,159 Main Road,Bengaluru,KA,560069,9204909729
1234568720,Dr. Vihaan Sharma,Dermatology,185 Main Road,Kolkata,WB,700023,9101605163
1234568721,Dr. Ishaan Iyer,General Medicine,34 Main Road,Delhi,DL,110055,9964081885
1234568722,Dr. Ayaan Gupta,Psychiatry,58 Main Road,Kolkata,WB,700058,9341992076
1234568723,Dr. Aditya Chatterjee,ENT,102 Main Road,Mumbai,MH,400075,9600390774
1234568724,Dr. Pooja Nair,Psychiatry,156 Main Road,Chennai,TN,600039,9220545487
1234568725,Dr. Kavya Patel,Cardiology,18 Main Road,Kolkata,WB,700046,9320067478
1234568726,Dr. Vihaan Iyer,Cardiology,108 Main Road,Hyderabad,TS,500086,9571290828
1234568727,Dr. Ananya Gupta,General Medicine,21 Main Road,Ahmedabad,GJ,380058,9598479099
1234568728,Dr. Priyanka Singh,Pediatrics,102 Main Road,Ahmedabad,GJ,380047,9946395900
1234568729,Dr. Ayaan Chatterjee,Psychiatry,123 Main Road,Kolkata,WB,700031,9263087551
1234568730,Dr. Vivaan Kulkarni,Dermatology,130 Main Road,Hyderabad,TS,500024,9941847290
1234568731,Dr. Arjun Malhotra,Pediatrics,191 Main Road,Delhi,DL,110091,9706676457
1234568732,Dr. Riya Patel,Cardiology,141 Main Road,Hyderabad,TS,500067,9438460376
1234568733,Dr. Ayaan Gupta,Dermatology,146 Main Road,Ahmedabad,GJ,380075,9193284882
1234568734,Dr. Riya Iyer,Pediatrics,111 Main Road,Kolkata,WB,700037,9547571282
1234568735,Dr. Sakshi Gupta,Cardiology,8 Main Road,Pune,MH,411099,9352821725
1234568736,Dr. Kavya Gupta,Gynecology,44 Main Road,Chennai,TN,600037,9608958666
1234568737,Dr. Reyansh Chatterjee,Gynecology,146 Main Road,Ahmedabad,GJ,380069,9526794674
1234568738,Dr. Aditya Verma,Orthopedics,166 Main Road,Hyderabad,TS,500019,9609663359
1234568739,Dr. Aarav Nair,Gynecology,58 Main Road,Ahmedabad,GJ,380059,9881383025
1234568740,Dr. Arjun Chatterjee,Dermatology,139 Main Road,Pune,MH,411090,9599929773
1234568741,Dr. Arjun Gupta,Dermatology,90 Main Road,Delhi,DL,110045,9870381231
1234568742,Dr. Aditya Rao,Dermatology,135 Main Road,Bengaluru,KA,560042,9586130330
1234568743,Dr. Arjun Iyer,Neurology,68 Main Road,Delhi,DL,110023,9799863347
1234568744,Dr. Ishaan Sharma,Oncology,181 Main Road,Ahmedabad,GJ,380042,9432532274
1234568745,Dr. Priyanka Chatterjee,Orthopedics,149 Main Road,Bengaluru,KA,560090,9884095701
1234568746,Dr. Sakshi Chatterjee,Pediatrics,180 Main Road,Bengaluru,KA,560066,9469294309
1234568747,Dr. Ananya Mehta,Dermatology,111 Main Road,Ahmedabad,GJ,380090,9980878421
1234568748,Dr. Arjun Singh,Pediatrics,20 Main Road,Bengaluru,KA,560044,9355705000
1234568749,Dr. Riya Chatterjee,Oncology,152 Main Road,Mumbai,MH,400013,9113768386
1234568750,Dr. Riya Patel,Gynecology,175 Main Road,Kolkata,WB,700030,9533156869
1234568751,Dr. Vihaan Malhotra,ENT,49 Main Road,Mumbai,MH,400039,9378082725
1234568752,Dr. Kavya Malhotra,Neurology,66 Main Road,Pune,MH,411095,9197946805
1234568753,Dr. Arjun Mehta,Cardiology,175 Main Road,Bengaluru,KA,560015,9224963713
1234568754,Dr. Reyansh Rao,Orthopedics,45 Main Road,Mumbai,MH,400090,9574796461
1234568755,Dr. Riya Gupta,Pediatrics,156 Main Road,Pune,MH,411067,9854036383
1234568756,Dr. Riya Rao,Psychiatry,71 Main Road,Ahmedabad,GJ,380076,9204552301
1234568757,Dr. Riya Gupta,Psychiatry,62 Main Road,Delhi,DL,110023,9247858695
1234568758,Dr. Ishaan Nair,Neurology,94 Main Road,Delhi,DL,110048,9501855872
1234568759,Dr. Ishaan Nair,Gynecology,95 Main Road,Bengaluru,KA,560088,9344307215
1234568760,Dr. Pooja Chatterjee,Cardiology,159 Main Road,Kolkata,WB,700043,9491256402
1234568761,Dr. Aarav Mehta,Gynecology,69 Main Road,Delhi,DL,110059,9415704061
1234568762,Dr. Ishaan Chatterjee,Orthopedics,53 Main Road,Bengaluru,KA,560033,9719431244
1234568763,Dr. Ishaan Singh,Psychiatry,16 Main Road,Delhi,DL,110037,9242036301
1234568764,Dr. Vihaan Singh,Psychiatry,81 Main Road,Mumbai,MH,400096,9635089812
1234568765,Dr. Kavya Verma,Orthopedics,65 Main Road,Bengaluru,KA,560085,9926463911
1234568766,Dr. Vivaan Chatterjee,Dermatology,184 Main Road,Chennai,TN,600059,9453939953
1234568767,Dr. Sakshi Iyer,Neurology,150 Main Road,Ahmedabad,GJ,380093,9444202711
1234568768,Dr. Riya Mehta,Oncology,15 Main Road,Hyderabad,TS,500094,9636143457
1234568769,Dr. Pooja Kulkarni,Cardiology,67 Main Road,Kolkata,WB,700071,9248019287
1234568770,Dr. Reyansh Kulkarni,Oncology,83 Main Road,Bengaluru,KA,560019,9223857854
1234568771,Dr. Sakshi Patel,Pediatrics,106 Main Road,Kolkata,WB,700044,9107798521
1234568772,Dr. Aarav Mehta,ENT,85 Main Road,Ahmedabad,GJ,380048,9672840000
1234568773,Dr. Ananya Malhotra,Pediatrics,109 Main Road,Hyderabad,TS,500030,9695229879
1234568774,Dr. Riya Nair,Cardiology,11 Main Road,Bengaluru,KA,560044,9923594310
1234568775,Dr. Ananya Rao,Orthopedics,178 Main Road,Chennai,TN,600030,9366548796
1234568776,Dr. Aditya Singh,Cardiology,197 Main Road,Hyderabad,TS,500013,9294974019
1234568777,Dr. Sakshi Singh,Pediatrics,179 Main Road,Pune,MH,411038,9545412987
1234568778,Dr. Pooja Patel,Dermatology,161 Main Road,Chennai,TN,600078,9376520720
1234568779,Dr. Priyanka Nair,Oncology,148 Main Road,Pune,MH,411090,9553109105
1234568780,Dr. Ayaan Kulkarni,ENT,144 Main Road,Ahmedabad,GJ,380035,9973042636
1234568781,Dr. Sakshi Sharma,Pediatrics,183 Main Road,Hyderabad,TS,500037,9718413372
1234568782,Dr. Aditya Kulkarni,General Medicine,51 Main Road,Pune,MH,411083,9920973254
1234568783,Dr. Riya Verma,Oncology,162 Main Road,Kolkata,WB,700013,9741222389
1234568784,Dr. Arjun Chatterjee,Dermatology,67 Main Road,Mumbai,MH,400086,9425276877
1234568785,Dr. Arjun Chatterjee,Oncology,83 Main Road,Delhi,DL,110079,9670126762
1234568786,Dr. Ayaan Malhotra,Dermatology,141 Main Road,Ahmedabad,GJ,380015,9593554590
1234568787,Dr. Ishaan Malhotra,General Medicine,35 Main Road,Delhi,DL,110086,9687559578
1234568788,Dr. Reyansh Verma,General Medicine,12 Main Road,Pune,MH,411034,9743039549
1234568789,Dr. Ananya Mehta,Psychiatry,195 Main Road,Bengaluru,KA,560061,9688772881
1234568790,Dr. Ananya Gupta,Psychiatry,159 Main Road,Delhi,DL,110065,9612425900
1234568791,Dr. Ayaan Singh,General Medicine,139 Main Road,Chennai,TN,600059,9761556799
1234568792,Dr. Ananya Malhotra,Pediatrics,91 Main Road,Delhi,DL,110076,9719053382
1234568793,Dr. Vivaan Nair,Pediatrics,162 Main Road,Ahmedabad,GJ,380011,9732377606
1234568794,Dr. Aarav Iyer,General Medicine,11 Main Road,Chennai,TN,600080,9809210089
1234568795,Dr. Arjun Mehta,Cardiology,154 Main Road,Ahmedabad,GJ,380082,9908426305
1234568796,Dr. Sakshi Mehta,Oncology,60 Main Road,Bengaluru,KA,560078,9959219023
1234568797,Dr. Arjun Kulkarni,General Medicine,52 Main Road,Bengaluru,KA,560033,9909613949
1234568798,Dr. Vihaan Singh,Pediatrics,74 Main Road,Bengaluru,KA,560084,9571090840
1234568799,Dr. Arjun Nair,Dermatology,93 Main Road,Mumbai,MH,400086,9752623258
1234568800,Dr. Ananya Singh,Orthopedics,198 Main Road,Hyderabad,TS,500060,9212387322
1234568801,Dr. Ishaan Verma,General Medicine,67 Main Road,Pune,MH,411048,9434341120
1234568802,Dr. Ishaan Iyer,Oncology,142 Main Road,Kolkata,WB,700089,9854368592
1234568803,Dr. Reyansh Verma,Psychiatry,98 Main Road,Hyderabad,TS,500038,9615200394
1234568804,Dr. Neha Iyer,ENT,195 Main Road,Ahmedabad,GJ,380089,9800741151
1234568805,Dr. Aarav Kulkarni,Cardiology,176 Main Road,Hyderabad,TS,500086,9358054827
1234568806,Dr. Arjun Sharma,Orthopedics,119 Main Road,Pune,MH,411056,9732027165
1234568807,Dr. Kavya Nair,Psychiatry,4 Main Road,Ahmedabad,GJ,380077,9162058429
1234568808,Dr. Aditya Mehta,Pediatrics,62 Main Road,Mumbai,MH,400071,9553753694
1234568809,Dr. Arjun Mehta,Oncology,48 Main Road,Bengaluru,KA,560097,9119335540
1234568810,Dr. Aarav Verma,General Medicine,156 Main Road,Kolkata,WB,700097,9413690235
1234568811,Dr. Aarav Rao,Orthopedics,128 Main Road,Kolkata,WB,700092,9132136089
1234568812,Dr. Ayaan Kulkarni,Dermatology,3 Main Road,Bengaluru,KA,560016,9785379195
1234568813,Dr. Kavya Mehta,Dermatology,130 Main Road,Delhi,DL,110063,9124850665
1234568814,Dr. Ishaan Chatterjee,Neurology,135 Main Road,Kolkata,WB,700029,9616861224
1234568815,Dr. Pooja Sharma,Neurology,117 Main Road,Kolkata,WB,700063,9181345190
1234568816,Dr. Priyanka Patel,General Medicine,68 Main Road,Bengaluru,KA,560036,9192472740
1234568817,Dr. Ananya Nair,Psychiatry,91 Main Road,Ahmedabad,GJ,380082,9582811533
1234568818,Dr. Aarav Singh,Pediatrics,88 Main Road,Chennai,TN,600040,9343295222
1234568819,Dr. Arjun Malhotra,ENT,83 Main Road,Ahmedabad,GJ,380077,9336903515
1234568820,Dr. Vivaan Kulkarni,Dermatology,126 Main Road,Ahmedabad,GJ,380014,9422795709
1234568821,Dr. Kavya Verma,Cardiology,164 Main Road,Pune,MH,411084,9900453410
1234568822,Dr. Kavya Chatterjee,Oncology,70 Main Road,Mumbai,MH,400034,9135208045
1234568823,Dr. Riya Rao,Cardiology,53 Main Road,Pune,MH,411025,9790117723
1234568824,Dr. Riya Singh,Oncology,108 Main Road,Mumbai,MH,400096,9126983488
1234568825,Dr. Ananya Verma,General Medicine,87 Main Road,Pune,MH,411054,9850586858
1234568826,Dr. Ishaan Rao,Cardiology,35 Main Road,Pune,MH,411037,9311466213
1234568827,Dr. Pooja Rao,Cardiology,95 Main Road,Mumbai,MH,400025,9591414989
1234568828,Dr. Vivaan Verma,Orthopedics,91 Main Road,Pune,MH,411066,9303276585
1234568829,Dr. Neha Patel,Orthopedics,100 Main Road,Kolkata,WB,700090,9126071791
1234568830,Dr. Kavya Malhotra,General Medicine,165 Main Road,Delhi,DL,110021,9547597585
1234568831,Dr. Aditya Sharma,Orthopedics,152 Main Road,Kolkata,WB,700065,9271585883
1234568832,Dr. Ishaan Rao,Psychiatry,15 Main Road,Hyderabad,TS,500054,9906405271
1234568833,Dr. Pooja Iyer,General Medicine,38 Main Road,Ahmedabad,GJ,380064,9917846976
1234568834,Dr. Ayaan Patel,Cardiology,1 Main Road,Kolkata,WB,700041,9920895172
1234568835,Dr. Pooja Mehta,Pediatrics,8 Main Road,Ahmedabad,GJ,380024,9245602785
1234568836,Dr. Aditya Verma,Neurology,70 Main Road,Chennai,TN,600071,9951741106
1234568837,Dr. Priyanka Mehta,Oncology,32 Main Road,Hyderabad,TS,500046,9767856882
1234568838,Dr. Aarav Singh,Neurology,160 Main Road,Pune,MH,411047,9767960911
1234568839,Dr. Sakshi Malhotra,Oncology,139 Main Road,Bengaluru,KA,560032,9884884349
1234568840,Dr. Arjun Chatterjee,Gynecology,77 Main Road,Ahmedabad,GJ,380085,9540756969
1234568841,Dr. Sakshi Rao,General Medicine,71 Main Road,Kolkata,WB,700068,9365301959
1234568842,Dr. Aarav Verma,Dermatology,36 Main Road,Ahmedabad,GJ,380048,9608705779
1234568843,Dr. Riya Nair,Dermatology,160 Main Road,Bengaluru,KA,560065,9546321225
1234568844,Dr. Sakshi Mehta,Pediatrics,59 Main Road,Pune,MH,411076,9917090006
1234568845,Dr. Riya Gupta,ENT,55 Main Road,Hyderabad,TS,500094,9294493566
1234568846,Dr. Vivaan Singh,Gynecology,172 Main Road,Hyderabad,TS,500043,9219868736
1234568847,Dr. Ishaan Sharma,Orthopedics,21 Main Road,Bengaluru,KA,560087,9133080921
1234568848,Dr. Riya Mehta,ENT,51 Main Road,Mumbai,MH,400024,9545603203
1234568849,Dr. Ayaan Gupta,Dermatology,35 Main Road,Bengaluru,KA,560064,9612024597
1234568850,Dr. Kavya Iyer,Psychiatry,57 Main Road,Chennai,TN,600028,9566543515
1234568851,Dr. Aditya Patel,Orthopedics,21 Main Road,Ahmedabad,GJ,380027,9168046326
1234568852,Dr. Kavya Kulkarni,Neurology,68 Main Road,Chennai,TN,600040,9349285175
1234568853,Dr. Sakshi Patel,Orthopedics,148 Main Road,Hyderabad,TS,500094,9124942558
1234568854,Dr. Pooja Chatterjee,Cardiology,115 Main Road,Pune,MH,411037,9362649124
1234568855,Dr. Pooja Kulkarni,Pediatrics,40 Main Road,Delhi,DL,110051,9156565445
1234568856,Dr. Aarav Malhotra,Gynecology,18 Main Road,Bengaluru,KA,560029,9307301759
1234568857,Dr. Vihaan Sharma,General Medicine,112 Main Road,Mumbai,MH,400067,9786060760
1234568858,Dr. Ayaan Chatterjee,ENT,6 Main Road,Bengaluru,KA,560033,9805867852
1234568859,Dr. Neha Patel,Oncology,14 Main Road,Delhi,DL,110078,9359272698
1234568860,Dr. Kavya Patel,Psychiatry,192 Main Road,Pune,MH,411089,9481047263
1234568861,Dr. Aditya Malhotra,Oncology,6 Main Road,Mumbai,MH,400070,9555347495
1234568862,Dr. Pooja Nair,Cardiology,178 Main Road,Mumbai,MH,400063,9592958328
1234568863,Dr. Vihaan Malhotra,Dermatology,51 Main Road,Mumbai,MH,400085,9648864365
1234568864,Dr. Arjun Iyer,Cardiology,197 Main Road,Bengaluru,KA,560076,9725646658
1234568865,Dr. Vihaan Patel,Psychiatry,92 Main Road,Delhi,DL,110021,9569992553
1234568866,Dr. Riya Rao,Dermatology,125 Main Road,Bengaluru,KA,560025,9430494757
1234568867,Dr. Ishaan Sharma,Psychiatry,118 Main Road,Delhi,DL,110056,9115293812
1234568868,Dr. Ishaan Singh,ENT,145 Main Road,Mumbai,MH,400058,9574350166
1234568869,Dr. Vihaan Gupta,ENT,154 Main Road,Kolkata,WB,700047,9805871722
1234568870,Dr. Arjun Singh,General Medicine,43 Main Road,Chennai,TN,600027,9811278657
1234568871,Dr. Sakshi Sharma,Gynecology,92 Main Road,Mumbai,MH,400056,9226456301
1234568872,Dr. Riya Iyer,Dermatology,101 Main Road,Kolkata,WB,700066,9995771432
1234568873,Dr. Vivaan Mehta,ENT,161 Main Road,Chennai,TN,600087,9601724844
1234568874,Dr. Aditya Nair,Psychiatry,4 Main Road,Mumbai,MH,400049,9126452398
1234568875,Dr. Aarav Verma,Orthopedics,88 Main Road,Chennai,TN,600070,9745436357
1234568876,Dr. Ishaan Malhotra,General Medicine,162 Main Road,Hyderabad,TS,500016,9939642321
1234568877,Dr. Priyanka Malhotra,Orthopedics,51 Main Road,Mumbai,MH,400040,9683038841
1234568878,Dr. Aarav Gupta,General Medicine,77 Main Road,Pune,MH,411084,9509447879
1234568879,Dr. Vivaan Patel,Orthopedics,169 Main Road,Kolkata,WB,700014,9102919836
1234568880,Dr. Aarav Verma,Neurology,192 Main Road,Mumbai,MH,400025,9236292478
1234568881,Dr. Aarav Malhotra,Pediatrics,150 Main Road,Mumbai,MH,400066,9229194116
1234568882,Dr. Reyansh Mehta,Dermatology,116 Main Road,Ahmedabad,GJ,380036,9219066678
1234568883,Dr. Ananya Singh,Dermatology,164 Main Road,Kolkata,WB,700044,9542394322
1234568884,Dr. Vivaan Gupta,Oncology,83 Main Road,Pune,MH,411058,9757945046
1234568885,Dr. Reyansh Singh,General Medicine,180 Main Road,Kolkata,WB,700079,9910953703
1234568886,Dr. Priyanka Mehta,Psychiatry,62 Main Road,Pune,MH,411020,9296530615
1234568887,Dr. Priyanka Iyer,Oncology,130 Main Road,Kolkata,WB,700088,9264722013
1234568888,Dr. Vivaan Rao,Oncology,154 Main Road,Hyderabad,TS,500014,9213261007
1234568889,Dr. Kavya Malhotra,General Medicine,193 Main Road,Kolkata,WB,700085,9451735480
1234568890,Dr. Pooja Iyer,Neurology,55 Main Road,Kolkata,WB,700074,9243896754
1234568891,Dr. Kavya Mehta,Orthopedics,159 Main Road,Kolkata,WB,700043,9566187390
1234568892,Dr. Reyansh Patel,Psychiatry,57 Main Road,Bengaluru,KA,560046,9676102990
1234568893,Dr. Priyanka Patel,Cardiology,176 Main Road,Kolkata,WB,700086,9605533499
1234568894,Dr. Arjun Rao,Psychiatry,38 Main Road,Mumbai,MH,400033,9896416529
1234568895,Dr. Riya Malhotra,Pediatrics,18 Main Road,Chennai,TN,600010,9323161782
1234568896,Dr. Vivaan Verma,Gynecology,182 Main Road,Bengaluru,KA,560013,9706287026
1234568897,Dr. Vihaan Kulkarni,Psychiatry,186 Main Road,Bengaluru,KA,560057,9946814926
1234568898,Dr. Sakshi Patel,Dermatology,61 Main Road,Chennai,TN,600030,9936157662
1234568899,Dr. Arjun Nair,Psychiatry,115 Main Road,Delhi,DL,110062,9583425093
